{"type":"FeatureCollection","features":[{"type":"Feature","geometry":{"type":"Point","coordinates":[-73.81229,40.675023]},"properties":{"unique_key":"100000","created_date":"2024-12-11T12:00:00.000","complaint_type":"Street Flooding","descriptor":"Street Flooding (WH)","borough":"Queens"}},{"type":"Feature","geometry":{"type":"Point","coordinates":[-73.811928,40.676508]},"properties":{"unique_key":"100001","created_date":"2023-01-05T12:00:00.000","complaint_type":"Street Flooding","descriptor":"Street Flooding (WH)","borough":"Queens"}},{"type":"Feature","geometry":{"type":"Point","coordinates":[-73.812135,40.673809]},"properties":{"unique_key":"100002","created_date":"2024-04-06T12:00:00.000","complaint_type":"Street Flooding","descriptor":"Street Flooding (WH)","borough":"Queens"}},{"type":"Feature","geometry":{"type":"Point","coordinates":[-73.812564,40.675247]},"properties":{"unique_key":"100003","created_date":"2023-01-18T12:00:00.000","complaint_type":"Street Flooding","descriptor":"Street Flooding (SJ)","borough":"Queens"}},{"type":"Feature","geometry":{"type":"Point","coordinates":[-73.812011,40.676395]},"properties":{"unique_key":"100004","created_date":"2024-07-02T12:00:00.000","complaint_type":"Street Flooding","descriptor":"Street Flooding (WH)","borough":"Queens"}},{"type":"Feature","geometry":{"type":"Point","coordinates":[-73.812459,40.677032]},"properties":{"unique_key":"100005","created_date":"2024-08-16T12:00:00.000","complaint_type":"Street Flooding","descriptor":"Street Flooding (SJ)","borough":"Queens"}},{"type":"Feature","geometry":{"type":"Point","coordinates":[-73.817899,40.670353]},"properties":{"unique_key":"100006","created_date":"2023-12-09T12:00:00.000","complaint_type":"Sewer","descriptor":"Blocked Sewer","borough":"Queens"}},{"type":"Feature","geometry":{"type":"Point","coordinates":[-73.81355,40.674525]},"properties":{"unique_key":"100007","created_date":"2024-01-14T12:00:00.000","complaint_type":"Street Flooding","descriptor":"Street Flooding (WH)","borough":"Queens"}},{"type":"Feature","geometry":{"type":"Point","coordinates":[-73.811865,40.673494]},"properties":{"unique_key":"100008","created_date":"2024-10-24T12:00:00.000","complaint_type":"Street Flooding","descriptor":"Street Flooding (WH)","borough":"Queens"}},{"type":"Feature","geometry":{"type":"Point","coordinates":[-73.811273,40.678287]},"properties":{"unique_key":"100009","created_date":"2024-04-22T12:00:00.000","complaint_type":"Water System","descriptor":"Catch Basin Clogged/Flooding","borough":"Queens"}},{"type":"Feature","geometry":{"type":"Point","coordinates":[-73.812014,40.680677]},"properties":{"unique_key":"100010","created_date":"2024-12-21T12:00:00.000","complaint_type":"Street Flooding","descriptor":"Street Flooding (WH)","borough":"Queens"}},{"type":"Feature","geometry":{"type":"Point","coordinates":[-73.815104,40.673681]},"properties":{"unique_key":"100011","created_date":"2023-02-23T12:00:00.000","complaint_type":"Water System","descriptor":"Catch Basin Clogged/Flooding","borough":"Queens"}},{"type":"Feature","geometry":{"type":"Point","coordinates":[-73.811095,40.674317]},"properties":{"unique_key":"100012","created_date":"2023-05-27T12:00:00.000","complaint_type":"Water System","descriptor":"Catch Basin Clogged/Flooding","borough":"Queens"}},{"type":"Feature","geometry":{"type":"Point","coordinates":[-73.808666,40.675574]},"properties":{"unique_key":"100013","created_date":"2024-07-09T12:00:00.000","complaint_type":"Street Flooding","descriptor":"Street Flooding (SJ)","borough":"Queens"}},{"type":"Feature","geometry":{"type":"Point","coordinates":[-73.810332,40.665032]},"properties":{"unique_key":"100014","created_date":"2024-04-19T12:00:00.000","complaint_type":"Water System","descriptor":"Catch Basin Clogged/Flooding","borough":"Queens"}},{"type":"Feature","geometry":{"type":"Point","coordinates":[-73.812305,40.680019]},"properties":{"unique_key":"100015","created_date":"2023-02-16T12:00:00.000","complaint_type":"Sewer","descriptor":"Blocked Sewer","borough":"Queens"}},{"type":"Feature","geometry":{"type":"Point","coordinates":[-73.81191,40.679045]},"properties":{"unique_key":"100016","created_date":"2024-05-17T12:00:00.000","complaint_type":"Street Flooding","descriptor":"Street Flooding (SJ)","borough":"Queens"}},{"type":"Feature","geometry":{"type":"Point","coordinates":[-73.808768,40.678281]},"properties":{"unique_key":"100017","created_date":"2024-12-23T12:00:00.000","complaint_type":"Water System","descriptor":"Catch Basin Clogged/Flooding","borough":"Queens"}},{"type":"Feature","geometry":{"type":"Point","coordinates":[-73.815825,40.686616]},"properties":{"unique_key":"100018","created_date":"2023-06-02T12:00:00.000","complaint_type":"Water System","descriptor":"Catch Basin Clogged/Flooding","borough":"Queens"}},{"type":"Feature","geometry":{"type":"Point","coordinates":[-73.814379,40.674033]},"properties":{"unique_key":"100019","created_date":"2023-11-01T12:00:00.000","complaint_type":"Street Flooding","descriptor":"Street Flooding (WH)","borough":"Queens"}},{"type":"Feature","geometry":{"type":"Point","coordinates":[-73.813631,40.677966]},"properties":{"unique_key":"100020","created_date":"2023-06-04T12:00:00.000","complaint_type":"Street Flooding","descriptor":"Street Flooding (SJ)","borough":"Queens"}},{"type":"Feature","geometry":{"type":"Point","coordinates":[-73.816773,40.679601]},"properties":{"unique_key":"100021","created_date":"2024-09-19T12:00:00.000","complaint_type":"Water System","descriptor":"Catch Basin Clogged/Flooding","borough":"Queens"}},{"type":"Feature","geometry":{"type":"Point","coordinates":[-73.811875,40.678693]},"properties":{"unique_key":"100022","created_date":"2023-08-20T12:00:00.000","complaint_type":"Sewer","descriptor":"Blocked Sewer","borough":"Queens"}},{"type":"Feature","geometry":{"type":"Point","coordinates":[-73.813562,40.676187]},"properties":{"unique_key":"100023","created_date":"2024-10-06T12:00:00.000","complaint_type":"Sewer","descriptor":"Blocked Sewer","borough":"Queens"}},{"type":"Feature","geometry":{"type":"Point","coordinates":[-73.809936,40.673838]},"properties":{"unique_key":"100024","created_date":"2023-12-24T12:00:00.000","complaint_type":"Sewer","descriptor":"Blocked Sewer","borough":"Queens"}},{"type":"Feature","geometry":{"type":"Point","coordinates":[-73.816059,40.678523]},"properties":{"unique_key":"100025","created_date":"2023-11-24T12:00:00.000","complaint_type":"Street Flooding","descriptor":"Street Flooding (WH)","borough":"Queens"}},{"type":"Feature","geometry":{"type":"Point","coordinates":[-73.811906,40.677132]},"properties":{"unique_key":"100026","created_date":"2024-07-16T12:00:00.000","complaint_type":"Street Flooding","descriptor":"Street Flooding (SJ)","borough":"Queens"}},{"type":"Feature","geometry":{"type":"Point","coordinates":[-73.814428,40.67621]},"properties":{"unique_key":"100027","created_date":"2024-01-19T12:00:00.000","complaint_type":"Sewer","descriptor":"Blocked Sewer","borough":"Queens"}},{"type":"Feature","geometry":{"type":"Point","coordinates":[-73.814455,40.67828]},"properties":{"unique_key":"100028","created_date":"2024-10-19T12:00:00.000","complaint_type":"Water System","descriptor":"Catch Basin Clogged/Flooding","borough":"Queens"}},{"type":"Feature","geometry":{"type":"Point","coordinates":[-73.811095,40.673461]},"properties":{"unique_key":"100029","created_date":"2024-11-24T12:00:00.000","complaint_type":"Water System","descriptor":"Catch Basin Clogged/Flooding","borough":"Queens"}},{"type":"Feature","geometry":{"type":"Point","coordinates":[-73.81296,40.676187]},"properties":{"unique_key":"100030","created_date":"2023-10-19T12:00:00.000","complaint_type":"Street Flooding","descriptor":"Street Flooding (WH)","borough":"Queens"}},{"type":"Feature","geometry":{"type":"Point","coordinates":[-73.813003,40.677071]},"properties":{"unique_key":"100031","created_date":"2024-09-22T12:00:00.000","complaint_type":"Street Flooding","descriptor":"Street Flooding (SJ)","borough":"Queens"}},{"type":"Feature","geometry":{"type":"Point","coordinates":[-73.812825,40.676464]},"properties":{"unique_key":"100032","created_date":"2024-12-04T12:00:00.000","complaint_type":"Street Flooding","descriptor":"Street Flooding (WH)","borough":"Queens"}},{"type":"Feature","geometry":{"type":"Point","coordinates":[-73.812134,40.675201]},"properties":{"unique_key":"100033","created_date":"2024-04-15T12:00:00.000","complaint_type":"Street Flooding","descriptor":"Street Flooding (WH)","borough":"Queens"}},{"type":"Feature","geometry":{"type":"Point","coordinates":[-73.811319,40.673676]},"properties":{"unique_key":"100034","created_date":"2023-02-25T12:00:00.000","complaint_type":"Sewer","descriptor":"Blocked Sewer","borough":"Queens"}},{"type":"Feature","geometry":{"type":"Point","coordinates":[-73.809936,40.676124]},"properties":{"unique_key":"100035","created_date":"2023-12-23T12:00:00.000","complaint_type":"Street Flooding","descriptor":"Street Flooding (WH)","borough":"Queens"}},{"type":"Feature","geometry":{"type":"Point","coordinates":[-73.817318,40.67501]},"properties":{"unique_key":"100036","created_date":"2024-12-28T12:00:00.000","complaint_type":"Water System","descriptor":"Catch Basin Clogged/Flooding","borough":"Queens"}},{"type":"Feature","geometry":{"type":"Point","coordinates":[-73.810102,40.676793]},"properties":{"unique_key":"100037","created_date":"2024-07-02T12:00:00.000","complaint_type":"Street Flooding","descriptor":"Street Flooding (WH)","borough":"Queens"}},{"type":"Feature","geometry":{"type":"Point","coordinates":[-73.812758,40.676192]},"properties":{"unique_key":"100038","created_date":"2024-07-15T12:00:00.000","complaint_type":"Water System","descriptor":"Catch Basin Clogged/Flooding","borough":"Queens"}},{"type":"Feature","geometry":{"type":"Point","coordinates":[-73.809983,40.678149]},"properties":{"unique_key":"100039","created_date":"2024-11-13T12:00:00.000","complaint_type":"Street Flooding","descriptor":"Street Flooding (WH)","borough":"Queens"}},{"type":"Feature","geometry":{"type":"Point","coordinates":[-73.810563,40.675502]},"properties":{"unique_key":"100040","created_date":"2024-06-03T12:00:00.000","complaint_type":"Street Flooding","descriptor":"Street Flooding (SJ)","borough":"Queens"}},{"type":"Feature","geometry":{"type":"Point","coordinates":[-73.811782,40.678013]},"properties":{"unique_key":"100041","created_date":"2023-07-03T12:00:00.000","complaint_type":"Street Flooding","descriptor":"Street Flooding (WH)","borough":"Queens"}},{"type":"Feature","geometry":{"type":"Point","coordinates":[-73.810553,40.676068]},"properties":{"unique_key":"100042","created_date":"2024-04-12T12:00:00.000","complaint_type":"Water System","descriptor":"Catch Basin Clogged/Flooding","borough":"Queens"}},{"type":"Feature","geometry":{"type":"Point","coordinates":[-73.81417,40.670202]},"properties":{"unique_key":"100043","created_date":"2024-09-19T12:00:00.000","complaint_type":"Street Flooding","descriptor":"Street Flooding (WH)","borough":"Queens"}},{"type":"Feature","geometry":{"type":"Point","coordinates":[-73.813041,40.675738]},"properties":{"unique_key":"100044","created_date":"2023-06-14T12:00:00.000","complaint_type":"Sewer","descriptor":"Blocked Sewer","borough":"Queens"}},{"type":"Feature","geometry":{"type":"Point","coordinates":[-73.806027,40.675049]},"properties":{"unique_key":"100045","created_date":"2023-03-05T12:00:00.000","complaint_type":"Street Flooding","descriptor":"Street Flooding (SJ)","borough":"Queens"}},{"type":"Feature","geometry":{"type":"Point","coordinates":[-73.809397,40.675941]},"properties":{"unique_key":"100046","created_date":"2024-12-19T12:00:00.000","complaint_type":"Water System","descriptor":"Catch Basin Clogged/Flooding","borough":"Queens"}},{"type":"Feature","geometry":{"type":"Point","coordinates":[-73.806267,40.680356]},"properties":{"unique_key":"100047","created_date":"2023-05-03T12:00:00.000","complaint_type":"Water System","descriptor":"Catch Basin Clogged/Flooding","borough":"Queens"}},{"type":"Feature","geometry":{"type":"Point","coordinates":[-73.811743,40.672242]},"properties":{"unique_key":"100048","created_date":"2023-02-02T12:00:00.000","complaint_type":"Water System","descriptor":"Catch Basin Clogged/Flooding","borough":"Queens"}},{"type":"Feature","geometry":{"type":"Point","coordinates":[-73.811107,40.679918]},"properties":{"unique_key":"100049","created_date":"2024-12-27T12:00:00.000","complaint_type":"Street Flooding","descriptor":"Street Flooding (SJ)","borough":"Queens"}},{"type":"Feature","geometry":{"type":"Point","coordinates":[-73.811289,40.677222]},"properties":{"unique_key":"100050","created_date":"2024-12-27T12:00:00.000","complaint_type":"Street Flooding","descriptor":"Street Flooding (WH)","borough":"Queens"}},{"type":"Feature","geometry":{"type":"Point","coordinates":[-73.812017,40.675758]},"properties":{"unique_key":"100051","created_date":"2024-12-09T12:00:00.000","complaint_type":"Street Flooding","descriptor":"Street Flooding (WH)","borough":"Queens"}},{"type":"Feature","geometry":{"type":"Point","coordinates":[-73.811333,40.674565]},"properties":{"unique_key":"100052","created_date":"2024-09-18T12:00:00.000","complaint_type":"Street Flooding","descriptor":"Street Flooding (WH)","borough":"Queens"}},{"type":"Feature","geometry":{"type":"Point","coordinates":[-73.81324,40.679984]},"properties":{"unique_key":"100053","created_date":"2024-03-06T12:00:00.000","complaint_type":"Street Flooding","descriptor":"Street Flooding (WH)","borough":"Queens"}},{"type":"Feature","geometry":{"type":"Point","coordinates":[-73.804101,40.682689]},"properties":{"unique_key":"100054","created_date":"2023-12-08T12:00:00.000","complaint_type":"Water System","descriptor":"Catch Basin Clogged/Flooding","borough":"Queens"}},{"type":"Feature","geometry":{"type":"Point","coordinates":[-73.810651,40.674474]},"properties":{"unique_key":"100055","created_date":"2024-11-08T12:00:00.000","complaint_type":"Water System","descriptor":"Catch Basin Clogged/Flooding","borough":"Queens"}},{"type":"Feature","geometry":{"type":"Point","coordinates":[-73.813211,40.673941]},"properties":{"unique_key":"100056","created_date":"2024-10-11T12:00:00.000","complaint_type":"Street Flooding","descriptor":"Street Flooding (SJ)","borough":"Queens"}},{"type":"Feature","geometry":{"type":"Point","coordinates":[-73.809088,40.674255]},"properties":{"unique_key":"100057","created_date":"2024-01-02T12:00:00.000","complaint_type":"Street Flooding","descriptor":"Street Flooding (WH)","borough":"Queens"}},{"type":"Feature","geometry":{"type":"Point","coordinates":[-73.813871,40.674852]},"properties":{"unique_key":"100058","created_date":"2023-04-03T12:00:00.000","complaint_type":"Street Flooding","descriptor":"Street Flooding (SJ)","borough":"Queens"}},{"type":"Feature","geometry":{"type":"Point","coordinates":[-73.994553,40.68207]},"properties":{"unique_key":"100059","created_date":"2023-07-12T12:00:00.000","complaint_type":"Street Flooding","descriptor":"Street Flooding (SJ)","borough":"Brooklyn"}},{"type":"Feature","geometry":{"type":"Point","coordinates":[-73.990256,40.671084]},"properties":{"unique_key":"100060","created_date":"2023-11-26T12:00:00.000","complaint_type":"Sewer","descriptor":"Blocked Sewer","borough":"Brooklyn"}},{"type":"Feature","geometry":{"type":"Point","coordinates":[-73.990728,40.674069]},"properties":{"unique_key":"100061","created_date":"2024-12-04T12:00:00.000","complaint_type":"Street Flooding","descriptor":"Street Flooding (WH)","borough":"Brooklyn"}},{"type":"Feature","geometry":{"type":"Point","coordinates":[-73.990674,40.673981]},"properties":{"unique_key":"100062","created_date":"2023-10-24T12:00:00.000","complaint_type":"Street Flooding","descriptor":"Street Flooding (SJ)","borough":"Brooklyn"}},{"type":"Feature","geometry":{"type":"Point","coordinates":[-73.988741,40.675222]},"properties":{"unique_key":"100063","created_date":"2024-11-26T12:00:00.000","complaint_type":"Water System","descriptor":"Catch Basin Clogged/Flooding","borough":"Brooklyn"}},{"type":"Feature","geometry":{"type":"Point","coordinates":[-73.986067,40.677917]},"properties":{"unique_key":"100064","created_date":"2023-10-03T12:00:00.000","complaint_type":"Sewer","descriptor":"Blocked Sewer","borough":"Brooklyn"}},{"type":"Feature","geometry":{"type":"Point","coordinates":[-73.986873,40.673142]},"properties":{"unique_key":"100065","created_date":"2024-07-11T12:00:00.000","complaint_type":"Sewer","descriptor":"Blocked Sewer","borough":"Brooklyn"}},{"type":"Feature","geometry":{"type":"Point","coordinates":[-73.99078,40.672576]},"properties":{"unique_key":"100066","created_date":"2023-12-25T12:00:00.000","complaint_type":"Sewer","descriptor":"Blocked Sewer","borough":"Brooklyn"}},{"type":"Feature","geometry":{"type":"Point","coordinates":[-73.990848,40.67456]},"properties":{"unique_key":"100067","created_date":"2024-04-15T12:00:00.000","complaint_type":"Water System","descriptor":"Catch Basin Clogged/Flooding","borough":"Brooklyn"}},{"type":"Feature","geometry":{"type":"Point","coordinates":[-73.988789,40.672752]},"properties":{"unique_key":"100068","created_date":"2023-07-17T12:00:00.000","complaint_type":"Street Flooding","descriptor":"Street Flooding (SJ)","borough":"Brooklyn"}},{"type":"Feature","geometry":{"type":"Point","coordinates":[-73.987399,40.681858]},"properties":{"unique_key":"100069","created_date":"2024-07-22T12:00:00.000","complaint_type":"Street Flooding","descriptor":"Street Flooding (WH)","borough":"Brooklyn"}},{"type":"Feature","geometry":{"type":"Point","coordinates":[-73.992522,40.673062]},"properties":{"unique_key":"100070","created_date":"2023-11-26T12:00:00.000","complaint_type":"Sewer","descriptor":"Blocked Sewer","borough":"Brooklyn"}},{"type":"Feature","geometry":{"type":"Point","coordinates":[-73.987464,40.671019]},"properties":{"unique_key":"100071","created_date":"2023-07-03T12:00:00.000","complaint_type":"Sewer","descriptor":"Blocked Sewer","borough":"Brooklyn"}},{"type":"Feature","geometry":{"type":"Point","coordinates":[-73.991046,40.67363]},"properties":{"unique_key":"100072","created_date":"2024-02-17T12:00:00.000","complaint_type":"Street Flooding","descriptor":"Street Flooding (WH)","borough":"Brooklyn"}},{"type":"Feature","geometry":{"type":"Point","coordinates":[-73.989351,40.67533]},"properties":{"unique_key":"100073","created_date":"2024-12-07T12:00:00.000","complaint_type":"Sewer","descriptor":"Blocked Sewer","borough":"Brooklyn"}},{"type":"Feature","geometry":{"type":"Point","coordinates":[-73.989486,40.674028]},"properties":{"unique_key":"100074","created_date":"2024-02-20T12:00:00.000","complaint_type":"Water System","descriptor":"Catch Basin Clogged/Flooding","borough":"Brooklyn"}},{"type":"Feature","geometry":{"type":"Point","coordinates":[-73.993738,40.675033]},"properties":{"unique_key":"100075","created_date":"2023-10-02T12:00:00.000","complaint_type":"Sewer","descriptor":"Blocked Sewer","borough":"Brooklyn"}},{"type":"Feature","geometry":{"type":"Point","coordinates":[-73.983329,40.669126]},"properties":{"unique_key":"100076","created_date":"2024-03-27T12:00:00.000","complaint_type":"Water System","descriptor":"Catch Basin Clogged/Flooding","borough":"Brooklyn"}},{"type":"Feature","geometry":{"type":"Point","coordinates":[-73.989538,40.675981]},"properties":{"unique_key":"100077","created_date":"2023-11-04T12:00:00.000","complaint_type":"Water System","descriptor":"Catch Basin Clogged/Flooding","borough":"Brooklyn"}},{"type":"Feature","geometry":{"type":"Point","coordinates":[-73.989926,40.675273]},"properties":{"unique_key":"100078","created_date":"2023-10-15T12:00:00.000","complaint_type":"Sewer","descriptor":"Blocked Sewer","borough":"Brooklyn"}},{"type":"Feature","geometry":{"type":"Point","coordinates":[-73.989879,40.670984]},"properties":{"unique_key":"100079","created_date":"2023-11-14T12:00:00.000","complaint_type":"Street Flooding","descriptor":"Street Flooding (SJ)","borough":"Brooklyn"}},{"type":"Feature","geometry":{"type":"Point","coordinates":[-73.992733,40.679115]},"properties":{"unique_key":"100080","created_date":"2024-04-22T12:00:00.000","complaint_type":"Street Flooding","descriptor":"Street Flooding (WH)","borough":"Brooklyn"}},{"type":"Feature","geometry":{"type":"Point","coordinates":[-73.995526,40.675901]},"properties":{"unique_key":"100081","created_date":"2024-08-09T12:00:00.000","complaint_type":"Water System","descriptor":"Catch Basin Clogged/Flooding","borough":"Brooklyn"}},{"type":"Feature","geometry":{"type":"Point","coordinates":[-73.98725,40.673023]},"properties":{"unique_key":"100082","created_date":"2024-01-20T12:00:00.000","complaint_type":"Sewer","descriptor":"Blocked Sewer","borough":"Brooklyn"}},{"type":"Feature","geometry":{"type":"Point","coordinates":[-73.989763,40.669464]},"properties":{"unique_key":"100083","created_date":"2024-01-25T12:00:00.000","complaint_type":"Water System","descriptor":"Catch Basin Clogged/Flooding","borough":"Brooklyn"}},{"type":"Feature","geometry":{"type":"Point","coordinates":[-73.992541,40.676511]},"properties":{"unique_key":"100084","created_date":"2023-10-10T12:00:00.000","complaint_type":"Sewer","descriptor":"Blocked Sewer","borough":"Brooklyn"}},{"type":"Feature","geometry":{"type":"Point","coordinates":[-73.988078,40.674915]},"properties":{"unique_key":"100085","created_date":"2024-04-06T12:00:00.000","complaint_type":"Water System","descriptor":"Catch Basin Clogged/Flooding","borough":"Brooklyn"}},{"type":"Feature","geometry":{"type":"Point","coordinates":[-73.98581,40.677106]},"properties":{"unique_key":"100086","created_date":"2024-06-20T12:00:00.000","complaint_type":"Water System","descriptor":"Catch Basin Clogged/Flooding","borough":"Brooklyn"}},{"type":"Feature","geometry":{"type":"Point","coordinates":[-73.987294,40.67306]},"properties":{"unique_key":"100087","created_date":"2023-06-21T12:00:00.000","complaint_type":"Water System","descriptor":"Catch Basin Clogged/Flooding","borough":"Brooklyn"}},{"type":"Feature","geometry":{"type":"Point","coordinates":[-73.989662,40.675123]},"properties":{"unique_key":"100088","created_date":"2023-07-15T12:00:00.000","complaint_type":"Street Flooding","descriptor":"Street Flooding (SJ)","borough":"Brooklyn"}},{"type":"Feature","geometry":{"type":"Point","coordinates":[-73.991348,40.673087]},"properties":{"unique_key":"100089","created_date":"2024-03-16T12:00:00.000","complaint_type":"Street Flooding","descriptor":"Street Flooding (WH)","borough":"Brooklyn"}},{"type":"Feature","geometry":{"type":"Point","coordinates":[-73.988218,40.674909]},"properties":{"unique_key":"100090","created_date":"2023-03-12T12:00:00.000","complaint_type":"Street Flooding","descriptor":"Street Flooding (SJ)","borough":"Brooklyn"}},{"type":"Feature","geometry":{"type":"Point","coordinates":[-73.991434,40.674194]},"properties":{"unique_key":"100091","created_date":"2024-06-18T12:00:00.000","complaint_type":"Sewer","descriptor":"Blocked Sewer","borough":"Brooklyn"}},{"type":"Feature","geometry":{"type":"Point","coordinates":[-73.989426,40.67584]},"properties":{"unique_key":"100092","created_date":"2024-04-20T12:00:00.000","complaint_type":"Street Flooding","descriptor":"Street Flooding (WH)","borough":"Brooklyn"}},{"type":"Feature","geometry":{"type":"Point","coordinates":[-73.989371,40.676594]},"properties":{"unique_key":"100093","created_date":"2023-03-01T12:00:00.000","complaint_type":"Street Flooding","descriptor":"Street Flooding (WH)","borough":"Brooklyn"}},{"type":"Feature","geometry":{"type":"Point","coordinates":[-73.992104,40.674762]},"properties":{"unique_key":"100094","created_date":"2023-09-25T12:00:00.000","complaint_type":"Sewer","descriptor":"Blocked Sewer","borough":"Brooklyn"}},{"type":"Feature","geometry":{"type":"Point","coordinates":[-73.992453,40.665733]},"properties":{"unique_key":"100095","created_date":"2024-05-19T12:00:00.000","complaint_type":"Street Flooding","descriptor":"Street Flooding (WH)","borough":"Brooklyn"}},{"type":"Feature","geometry":{"type":"Point","coordinates":[-73.990069,40.675585]},"properties":{"unique_key":"100096","created_date":"2024-04-03T12:00:00.000","complaint_type":"Street Flooding","descriptor":"Street Flooding (WH)","borough":"Brooklyn"}},{"type":"Feature","geometry":{"type":"Point","coordinates":[-73.989197,40.675954]},"properties":{"unique_key":"100097","created_date":"2024-03-19T12:00:00.000","complaint_type":"Street Flooding","descriptor":"Street Flooding (SJ)","borough":"Brooklyn"}},{"type":"Feature","geometry":{"type":"Point","coordinates":[-73.989386,40.677183]},"properties":{"unique_key":"100098","created_date":"2024-07-01T12:00:00.000","complaint_type":"Street Flooding","descriptor":"Street Flooding (WH)","borough":"Brooklyn"}},{"type":"Feature","geometry":{"type":"Point","coordinates":[-73.985671,40.680672]},"properties":{"unique_key":"100099","created_date":"2023-09-26T12:00:00.000","complaint_type":"Sewer","descriptor":"Blocked Sewer","borough":"Brooklyn"}},{"type":"Feature","geometry":{"type":"Point","coordinates":[-73.990182,40.67935]},"properties":{"unique_key":"100100","created_date":"2023-01-22T12:00:00.000","complaint_type":"Street Flooding","descriptor":"Street Flooding (WH)","borough":"Brooklyn"}},{"type":"Feature","geometry":{"type":"Point","coordinates":[-73.991528,40.678462]},"properties":{"unique_key":"100101","created_date":"2024-07-01T12:00:00.000","complaint_type":"Water System","descriptor":"Catch Basin Clogged/Flooding","borough":"Brooklyn"}},{"type":"Feature","geometry":{"type":"Point","coordinates":[-73.988299,40.67792]},"properties":{"unique_key":"100102","created_date":"2023-09-07T12:00:00.000","complaint_type":"Water System","descriptor":"Catch Basin Clogged/Flooding","borough":"Brooklyn"}},{"type":"Feature","geometry":{"type":"Point","coordinates":[-73.988711,40.677045]},"properties":{"unique_key":"100103","created_date":"2024-06-18T12:00:00.000","complaint_type":"Sewer","descriptor":"Blocked Sewer","borough":"Brooklyn"}},{"type":"Feature","geometry":{"type":"Point","coordinates":[-73.990662,40.675341]},"properties":{"unique_key":"100104","created_date":"2023-08-12T12:00:00.000","complaint_type":"Street Flooding","descriptor":"Street Flooding (SJ)","borough":"Brooklyn"}},{"type":"Feature","geometry":{"type":"Point","coordinates":[-73.987607,40.67161]},"properties":{"unique_key":"100105","created_date":"2023-01-14T12:00:00.000","complaint_type":"Street Flooding","descriptor":"Street Flooding (WH)","borough":"Brooklyn"}},{"type":"Feature","geometry":{"type":"Point","coordinates":[-73.989091,40.674576]},"properties":{"unique_key":"100106","created_date":"2023-08-08T12:00:00.000","complaint_type":"Street Flooding","descriptor":"Street Flooding (WH)","borough":"Brooklyn"}},{"type":"Feature","geometry":{"type":"Point","coordinates":[-73.989293,40.67675]},"properties":{"unique_key":"100107","created_date":"2024-10-04T12:00:00.000","complaint_type":"Street Flooding","descriptor":"Street Flooding (WH)","borough":"Brooklyn"}},{"type":"Feature","geometry":{"type":"Point","coordinates":[-73.988003,40.674456]},"properties":{"unique_key":"100108","created_date":"2024-04-27T12:00:00.000","complaint_type":"Sewer","descriptor":"Blocked Sewer","borough":"Brooklyn"}},{"type":"Feature","geometry":{"type":"Point","coordinates":[-73.996796,40.669545]},"properties":{"unique_key":"100109","created_date":"2023-07-03T12:00:00.000","complaint_type":"Sewer","descriptor":"Blocked Sewer","borough":"Brooklyn"}},{"type":"Feature","geometry":{"type":"Point","coordinates":[-73.995288,40.679563]},"properties":{"unique_key":"100110","created_date":"2023-10-14T12:00:00.000","complaint_type":"Sewer","descriptor":"Blocked Sewer","borough":"Brooklyn"}},{"type":"Feature","geometry":{"type":"Point","coordinates":[-73.990102,40.672248]},"properties":{"unique_key":"100111","created_date":"2024-04-11T12:00:00.000","complaint_type":"Street Flooding","descriptor":"Street Flooding (SJ)","borough":"Brooklyn"}},{"type":"Feature","geometry":{"type":"Point","coordinates":[-73.992342,40.677126]},"properties":{"unique_key":"100112","created_date":"2023-08-16T12:00:00.000","complaint_type":"Water System","descriptor":"Catch Basin Clogged/Flooding","borough":"Brooklyn"}},{"type":"Feature","geometry":{"type":"Point","coordinates":[-73.989586,40.677548]},"properties":{"unique_key":"100113","created_date":"2023-04-10T12:00:00.000","complaint_type":"Water System","descriptor":"Catch Basin Clogged/Flooding","borough":"Brooklyn"}},{"type":"Feature","geometry":{"type":"Point","coordinates":[-73.992202,40.664832]},"properties":{"unique_key":"100114","created_date":"2024-03-01T12:00:00.000","complaint_type":"Sewer","descriptor":"Blocked Sewer","borough":"Brooklyn"}},{"type":"Feature","geometry":{"type":"Point","coordinates":[-73.991516,40.673013]},"properties":{"unique_key":"100115","created_date":"2024-11-25T12:00:00.000","complaint_type":"Water System","descriptor":"Catch Basin Clogged/Flooding","borough":"Brooklyn"}},{"type":"Feature","geometry":{"type":"Point","coordinates":[-73.989163,40.679435]},"properties":{"unique_key":"100116","created_date":"2023-11-10T12:00:00.000","complaint_type":"Street Flooding","descriptor":"Street Flooding (SJ)","borough":"Brooklyn"}},{"type":"Feature","geometry":{"type":"Point","coordinates":[-74.076694,40.606539]},"properties":{"unique_key":"100117","created_date":"2023-10-08T12:00:00.000","complaint_type":"Sewer","descriptor":"Blocked Sewer","borough":"Staten Island"}},{"type":"Feature","geometry":{"type":"Point","coordinates":[-74.08293,40.595145]},"properties":{"unique_key":"100118","created_date":"2024-03-19T12:00:00.000","complaint_type":"Sewer","descriptor":"Blocked Sewer","borough":"Staten Island"}},{"type":"Feature","geometry":{"type":"Point","coordinates":[-74.082701,40.594085]},"properties":{"unique_key":"100119","created_date":"2023-06-09T12:00:00.000","complaint_type":"Sewer","descriptor":"Blocked Sewer","borough":"Staten Island"}},{"type":"Feature","geometry":{"type":"Point","coordinates":[-74.083066,40.592707]},"properties":{"unique_key":"100120","created_date":"2024-05-27T12:00:00.000","complaint_type":"Sewer","descriptor":"Blocked Sewer","borough":"Staten Island"}},{"type":"Feature","geometry":{"type":"Point","coordinates":[-74.081088,40.588912]},"properties":{"unique_key":"100121","created_date":"2024-10-07T12:00:00.000","complaint_type":"Street Flooding","descriptor":"Street Flooding (SJ)","borough":"Staten Island"}},{"type":"Feature","geometry":{"type":"Point","coordinates":[-74.083479,40.595101]},"properties":{"unique_key":"100122","created_date":"2023-08-28T12:00:00.000","complaint_type":"Sewer","descriptor":"Blocked Sewer","borough":"Staten Island"}},{"type":"Feature","geometry":{"type":"Point","coordinates":[-74.08178,40.595276]},"properties":{"unique_key":"100123","created_date":"2023-08-14T12:00:00.000","complaint_type":"Water System","descriptor":"Catch Basin Clogged/Flooding","borough":"Staten Island"}},{"type":"Feature","geometry":{"type":"Point","coordinates":[-74.082144,40.587105]},"properties":{"unique_key":"100124","created_date":"2024-01-10T12:00:00.000","complaint_type":"Water System","descriptor":"Catch Basin Clogged/Flooding","borough":"Staten Island"}},{"type":"Feature","geometry":{"type":"Point","coordinates":[-74.081192,40.593645]},"properties":{"unique_key":"100125","created_date":"2023-02-05T12:00:00.000","complaint_type":"Street Flooding","descriptor":"Street Flooding (SJ)","borough":"Staten Island"}},{"type":"Feature","geometry":{"type":"Point","coordinates":[-74.081447,40.59623]},"properties":{"unique_key":"100126","created_date":"2023-07-09T12:00:00.000","complaint_type":"Sewer","descriptor":"Blocked Sewer","borough":"Staten Island"}},{"type":"Feature","geometry":{"type":"Point","coordinates":[-74.08197,40.596319]},"properties":{"unique_key":"100127","created_date":"2023-11-13T12:00:00.000","complaint_type":"Sewer","descriptor":"Blocked Sewer","borough":"Staten Island"}},{"type":"Feature","geometry":{"type":"Point","coordinates":[-74.082504,40.590523]},"properties":{"unique_key":"100128","created_date":"2023-07-07T12:00:00.000","complaint_type":"Street Flooding","descriptor":"Street Flooding (SJ)","borough":"Staten Island"}},{"type":"Feature","geometry":{"type":"Point","coordinates":[-74.081819,40.59335]},"properties":{"unique_key":"100129","created_date":"2024-03-09T12:00:00.000","complaint_type":"Street Flooding","descriptor":"Street Flooding (WH)","borough":"Staten Island"}},{"type":"Feature","geometry":{"type":"Point","coordinates":[-74.084315,40.5937]},"properties":{"unique_key":"100130","created_date":"2024-03-15T12:00:00.000","complaint_type":"Street Flooding","descriptor":"Street Flooding (WH)","borough":"Staten Island"}},{"type":"Feature","geometry":{"type":"Point","coordinates":[-74.08055,40.5949]},"properties":{"unique_key":"100131","created_date":"2023-07-12T12:00:00.000","complaint_type":"Sewer","descriptor":"Blocked Sewer","borough":"Staten Island"}},{"type":"Feature","geometry":{"type":"Point","coordinates":[-74.083436,40.593513]},"properties":{"unique_key":"100132","created_date":"2024-07-08T12:00:00.000","complaint_type":"Sewer","descriptor":"Blocked Sewer","borough":"Staten Island"}},{"type":"Feature","geometry":{"type":"Point","coordinates":[-74.082522,40.595561]},"properties":{"unique_key":"100133","created_date":"2023-11-14T12:00:00.000","complaint_type":"Street Flooding","descriptor":"Street Flooding (WH)","borough":"Staten Island"}},{"type":"Feature","geometry":{"type":"Point","coordinates":[-74.081861,40.594245]},"properties":{"unique_key":"100134","created_date":"2023-09-14T12:00:00.000","complaint_type":"Sewer","descriptor":"Blocked Sewer","borough":"Staten Island"}},{"type":"Feature","geometry":{"type":"Point","coordinates":[-74.083107,40.593862]},"properties":{"unique_key":"100135","created_date":"2024-09-11T12:00:00.000","complaint_type":"Street Flooding","descriptor":"Street Flooding (SJ)","borough":"Staten Island"}},{"type":"Feature","geometry":{"type":"Point","coordinates":[-74.084267,40.59363]},"properties":{"unique_key":"100136","created_date":"2023-09-02T12:00:00.000","complaint_type":"Street Flooding","descriptor":"Street Flooding (WH)","borough":"Staten Island"}},{"type":"Feature","geometry":{"type":"Point","coordinates":[-74.079979,40.592179]},"properties":{"unique_key":"100137","created_date":"2024-10-09T12:00:00.000","complaint_type":"Sewer","descriptor":"Blocked Sewer","borough":"Staten Island"}},{"type":"Feature","geometry":{"type":"Point","coordinates":[-74.078041,40.585365]},"properties":{"unique_key":"100138","created_date":"2024-02-09T12:00:00.000","complaint_type":"Street Flooding","descriptor":"Street Flooding (SJ)","borough":"Staten Island"}},{"type":"Feature","geometry":{"type":"Point","coordinates":[-74.082581,40.592221]},"properties":{"unique_key":"100139","created_date":"2024-09-17T12:00:00.000","complaint_type":"Water System","descriptor":"Catch Basin Clogged/Flooding","borough":"Staten Island"}},{"type":"Feature","geometry":{"type":"Point","coordinates":[-74.081113,40.591204]},"properties":{"unique_key":"100140","created_date":"2024-08-11T12:00:00.000","complaint_type":"Water System","descriptor":"Catch Basin Clogged/Flooding","borough":"Staten Island"}},{"type":"Feature","geometry":{"type":"Point","coordinates":[-74.081848,40.595921]},"properties":{"unique_key":"100141","created_date":"2023-03-24T12:00:00.000","complaint_type":"Water System","descriptor":"Catch Basin Clogged/Flooding","borough":"Staten Island"}},{"type":"Feature","geometry":{"type":"Point","coordinates":[-74.08459,40.587756]},"properties":{"unique_key":"100142","created_date":"2023-02-03T12:00:00.000","complaint_type":"Street Flooding","descriptor":"Street Flooding (SJ)","borough":"Staten Island"}},{"type":"Feature","geometry":{"type":"Point","coordinates":[-74.082091,40.595503]},"properties":{"unique_key":"100143","created_date":"2024-12-17T12:00:00.000","complaint_type":"Street Flooding","descriptor":"Street Flooding (WH)","borough":"Staten Island"}},{"type":"Feature","geometry":{"type":"Point","coordinates":[-74.077398,40.595234]},"properties":{"unique_key":"100144","created_date":"2024-07-20T12:00:00.000","complaint_type":"Street Flooding","descriptor":"Street Flooding (SJ)","borough":"Staten Island"}},{"type":"Feature","geometry":{"type":"Point","coordinates":[-74.08293,40.593221]},"properties":{"unique_key":"100145","created_date":"2024-11-18T12:00:00.000","complaint_type":"Sewer","descriptor":"Blocked Sewer","borough":"Staten Island"}},{"type":"Feature","geometry":{"type":"Point","coordinates":[-74.082134,40.595482]},"properties":{"unique_key":"100146","created_date":"2024-01-17T12:00:00.000","complaint_type":"Street Flooding","descriptor":"Street Flooding (SJ)","borough":"Staten Island"}},{"type":"Feature","geometry":{"type":"Point","coordinates":[-74.082069,40.593989]},"properties":{"unique_key":"100147","created_date":"2024-07-10T12:00:00.000","complaint_type":"Water System","descriptor":"Catch Basin Clogged/Flooding","borough":"Staten Island"}},{"type":"Feature","geometry":{"type":"Point","coordinates":[-74.080928,40.594092]},"properties":{"unique_key":"100148","created_date":"2023-04-03T12:00:00.000","complaint_type":"Sewer","descriptor":"Blocked Sewer","borough":"Staten Island"}},{"type":"Feature","geometry":{"type":"Point","coordinates":[-74.082027,40.591875]},"properties":{"unique_key":"100149","created_date":"2023-09-03T12:00:00.000","complaint_type":"Street Flooding","descriptor":"Street Flooding (WH)","borough":"Staten Island"}},{"type":"Feature","geometry":{"type":"Point","coordinates":[-74.081357,40.593989]},"properties":{"unique_key":"100150","created_date":"2023-08-10T12:00:00.000","complaint_type":"Street Flooding","descriptor":"Street Flooding (SJ)","borough":"Staten Island"}},{"type":"Feature","geometry":{"type":"Point","coordinates":[-74.080303,40.592028]},"properties":{"unique_key":"100151","created_date":"2023-04-12T12:00:00.000","complaint_type":"Street Flooding","descriptor":"Street Flooding (SJ)","borough":"Staten Island"}},{"type":"Feature","geometry":{"type":"Point","coordinates":[-74.084913,40.593352]},"properties":{"unique_key":"100152","created_date":"2024-07-27T12:00:00.000","complaint_type":"Sewer","descriptor":"Blocked Sewer","borough":"Staten Island"}},{"type":"Feature","geometry":{"type":"Point","coordinates":[-74.085979,40.594619]},"properties":{"unique_key":"100153","created_date":"2023-10-04T12:00:00.000","complaint_type":"Street Flooding","descriptor":"Street Flooding (SJ)","borough":"Staten Island"}},{"type":"Feature","geometry":{"type":"Point","coordinates":[-74.079807,40.596795]},"properties":{"unique_key":"100154","created_date":"2024-09-22T12:00:00.000","complaint_type":"Street Flooding","descriptor":"Street Flooding (SJ)","borough":"Staten Island"}},{"type":"Feature","geometry":{"type":"Point","coordinates":[-74.076695,40.601059]},"properties":{"unique_key":"100155","created_date":"2023-02-26T12:00:00.000","complaint_type":"Water System","descriptor":"Catch Basin Clogged/Flooding","borough":"Staten Island"}},{"type":"Feature","geometry":{"type":"Point","coordinates":[-74.082801,40.593803]},"properties":{"unique_key":"100156","created_date":"2023-12-08T12:00:00.000","complaint_type":"Water System","descriptor":"Catch Basin Clogged/Flooding","borough":"Staten Island"}},{"type":"Feature","geometry":{"type":"Point","coordinates":[-74.082911,40.59508]},"properties":{"unique_key":"100157","created_date":"2023-04-03T12:00:00.000","complaint_type":"Street Flooding","descriptor":"Street Flooding (SJ)","borough":"Staten Island"}},{"type":"Feature","geometry":{"type":"Point","coordinates":[-74.079817,40.589079]},"properties":{"unique_key":"100158","created_date":"2024-05-21T12:00:00.000","complaint_type":"Street Flooding","descriptor":"Street Flooding (SJ)","borough":"Staten Island"}},{"type":"Feature","geometry":{"type":"Point","coordinates":[-74.082164,40.595526]},"properties":{"unique_key":"100159","created_date":"2024-01-23T12:00:00.000","complaint_type":"Water System","descriptor":"Catch Basin Clogged/Flooding","borough":"Staten Island"}},{"type":"Feature","geometry":{"type":"Point","coordinates":[-74.082295,40.59323]},"properties":{"unique_key":"100160","created_date":"2023-03-23T12:00:00.000","complaint_type":"Street Flooding","descriptor":"Street Flooding (SJ)","borough":"Staten Island"}},{"type":"Feature","geometry":{"type":"Point","coordinates":[-74.082773,40.59389]},"properties":{"unique_key":"100161","created_date":"2024-12-01T12:00:00.000","complaint_type":"Water System","descriptor":"Catch Basin Clogged/Flooding","borough":"Staten Island"}},{"type":"Feature","geometry":{"type":"Point","coordinates":[-74.083611,40.592919]},"properties":{"unique_key":"100162","created_date":"2023-11-04T12:00:00.000","complaint_type":"Water System","descriptor":"Catch Basin Clogged/Flooding","borough":"Staten Island"}},{"type":"Feature","geometry":{"type":"Point","coordinates":[-74.081631,40.597359]},"properties":{"unique_key":"100163","created_date":"2024-11-22T12:00:00.000","complaint_type":"Street Flooding","descriptor":"Street Flooding (SJ)","borough":"Staten Island"}},{"type":"Feature","geometry":{"type":"Point","coordinates":[-74.082982,40.596216]},"properties":{"unique_key":"100164","created_date":"2023-01-22T12:00:00.000","complaint_type":"Water System","descriptor":"Catch Basin Clogged/Flooding","borough":"Staten Island"}},{"type":"Feature","geometry":{"type":"Point","coordinates":[-74.080495,40.592325]},"properties":{"unique_key":"100165","created_date":"2024-03-06T12:00:00.000","complaint_type":"Street Flooding","descriptor":"Street Flooding (WH)","borough":"Staten Island"}},{"type":"Feature","geometry":{"type":"Point","coordinates":[-74.082687,40.598072]},"properties":{"unique_key":"100166","created_date":"2024-12-02T12:00:00.000","complaint_type":"Street Flooding","descriptor":"Street Flooding (WH)","borough":"Staten Island"}},{"type":"Feature","geometry":{"type":"Point","coordinates":[-74.084529,40.596887]},"properties":{"unique_key":"100167","created_date":"2024-02-23T12:00:00.000","complaint_type":"Street Flooding","descriptor":"Street Flooding (WH)","borough":"Staten Island"}},{"type":"Feature","geometry":{"type":"Point","coordinates":[-74.08339,40.592406]},"properties":{"unique_key":"100168","created_date":"2023-07-11T12:00:00.000","complaint_type":"Water System","descriptor":"Catch Basin Clogged/Flooding","borough":"Staten Island"}},{"type":"Feature","geometry":{"type":"Point","coordinates":[-74.084466,40.595297]},"properties":{"unique_key":"100169","created_date":"2023-04-11T12:00:00.000","complaint_type":"Sewer","descriptor":"Blocked Sewer","borough":"Staten Island"}},{"type":"Feature","geometry":{"type":"Point","coordinates":[-74.083369,40.593131]},"properties":{"unique_key":"100170","created_date":"2024-02-13T12:00:00.000","complaint_type":"Street Flooding","descriptor":"Street Flooding (SJ)","borough":"Staten Island"}},{"type":"Feature","geometry":{"type":"Point","coordinates":[-74.083221,40.593074]},"properties":{"unique_key":"100171","created_date":"2023-09-21T12:00:00.000","complaint_type":"Water System","descriptor":"Catch Basin Clogged/Flooding","borough":"Staten Island"}},{"type":"Feature","geometry":{"type":"Point","coordinates":[-74.082454,40.593479]},"properties":{"unique_key":"100172","created_date":"2024-11-21T12:00:00.000","complaint_type":"Water System","descriptor":"Catch Basin Clogged/Flooding","borough":"Staten Island"}},{"type":"Feature","geometry":{"type":"Point","coordinates":[-74.083436,40.592551]},"properties":{"unique_key":"100173","created_date":"2024-07-17T12:00:00.000","complaint_type":"Street Flooding","descriptor":"Street Flooding (SJ)","borough":"Staten Island"}},{"type":"Feature","geometry":{"type":"Point","coordinates":[-74.08064,40.590929]},"properties":{"unique_key":"100174","created_date":"2024-12-05T12:00:00.000","complaint_type":"Sewer","descriptor":"Blocked Sewer","borough":"Staten Island"}},{"type":"Feature","geometry":{"type":"Point","coordinates":[-74.078597,40.594232]},"properties":{"unique_key":"100175","created_date":"2024-01-05T12:00:00.000","complaint_type":"Sewer","descriptor":"Blocked Sewer","borough":"Staten Island"}}]}