{"type":"FeatureCollection","features":[{"type":"Feature","geometry":{"type":"Polygon","coordinates":[[[-73.81512793276644,40.67481823683916],[-73.81492265348186,40.67480973386149],[-73.8149087679675,40.6750025455637],[-73.81511404725208,40.67501104854137],[-73.81512793276644,40.67481823683916]]]},"properties":{"height_ft":36.3,"floors":3,"type":"mid-rise"}},{"type":"Feature","geometry":{"type":"Polygon","coordinates":[[[-73.81430271222497,40.67485938541477],[-73.81413292438651,40.67485235254635],[-73.81411667597222,40.67507797504296],[-73.81428646381067,40.67508500791138],[-73.81430271222497,40.67485938541477]]]},"properties":{"height_ft":51.2,"floors":5,"type":"mid-rise"}},{"type":"Feature","geometry":{"type":"Polygon","coordinates":[[[-73.81375736221402,40.674751366091954],[-73.81347297847903,40.674739586488606],[-73.81345676701353,40.67496469592102],[-73.81374115074853,40.67497647552437],[-73.81375736221402,40.674751366091954]]]},"properties":{"height_ft":16.1,"floors":1,"type":"industrial"}},{"type":"Feature","geometry":{"type":"Polygon","coordinates":[[[-73.81292925533693,40.674695747308256],[-73.81263837832121,40.67468369874342],[-73.81262290468665,40.67489856279112],[-73.81291378170236,40.674910611355955],[-73.81292925533693,40.674695747308256]]]},"properties":{"height_ft":46.1,"floors":4,"type":"mid-rise"}},{"type":"Feature","geometry":{"type":"Polygon","coordinates":[[[-73.81220945362179,40.67473167435925],[-73.81204941199762,40.674725045193725],[-73.81203864238569,40.674874590047125],[-73.81219868400986,40.67488121921265],[-73.81220945362179,40.67473167435925]]]},"properties":{"height_ft":23.2,"floors":2,"type":"industrial"}},{"type":"Feature","geometry":{"type":"Polygon","coordinates":[[[-73.81159731746291,40.67466313204545],[-73.81130308970083,40.674650944687656],[-73.8112876938269,40.674864728965346],[-73.81158192158898,40.67487691632314],[-73.81159731746291,40.67466313204545]]]},"properties":{"height_ft":21.2,"floors":2,"type":"industrial"}},{"type":"Feature","geometry":{"type":"Polygon","coordinates":[[[-73.81084479618848,40.67468369494851],[-73.81059576720979,40.67467337979251],[-73.81058335538596,40.67484572809852],[-73.81083238436464,40.67485604325452],[-73.81084479618848,40.67468369494851]]]},"properties":{"height_ft":64.5,"floors":6,"type":"commercial"}},{"type":"Feature","geometry":{"type":"Polygon","coordinates":[[[-73.81003358277061,40.67456257352673],[-73.80981704764473,40.674553604315136],[-73.80979823100839,40.67481488867131],[-73.81001476613427,40.6748238578829],[-73.81003358277061,40.67456257352673]]]},"properties":{"height_ft":27.9,"floors":3,"type":"industrial"}},{"type":"Feature","geometry":{"type":"Polygon","coordinates":[[[-73.81502248433283,40.67540676595007],[-73.81479735045579,40.67539744056523],[-73.81478467768248,40.6755734123677],[-73.81500981155952,40.67558273775254],[-73.81502248433283,40.67540676595007]]]},"properties":{"height_ft":14.3,"floors":1,"type":"industrial"}},{"type":"Feature","geometry":{"type":"Polygon","coordinates":[[[-73.8144335233269,40.67533607436627],[-73.81415296055188,40.67532445303285],[-73.81413634756527,40.675555137913676],[-73.81441691034028,40.6755667592471],[-73.8144335233269,40.67533607436627]]]},"properties":{"height_ft":17.3,"floors":2,"type":"residential"}},{"type":"Feature","geometry":{"type":"Polygon","coordinates":[[[-73.81369538138141,40.67535571062095],[-73.81342716159904,40.675344600552904],[-73.81340908925368,40.67559554982134],[-73.81367730903605,40.67560665988938],[-73.81369538138141,40.67535571062095]]]},"properties":{"height_ft":24.2,"floors":2,"type":"industrial"}},{"type":"Feature","geometry":{"type":"Polygon","coordinates":[[[-73.81290830010832,40.67537690156689],[-73.81262501481368,40.6753651674626],[-73.81261325347242,40.67552848328718],[-73.81289653876706,40.67554021739147],[-73.81290830010832,40.67537690156689]]]},"properties":{"height_ft":30.4,"floors":3,"type":"residential"}},{"type":"Feature","geometry":{"type":"Polygon","coordinates":[[[-73.81230532620809,40.67526077705458],[-73.81202528609406,40.67524917737057],[-73.81200842734195,40.67548327490581],[-73.81228846745599,40.67549487458982],[-73.81230532620809,40.67526077705458]]]},"properties":{"height_ft":36.7,"floors":3,"type":"mid-rise"}},{"type":"Feature","geometry":{"type":"Polygon","coordinates":[[[-73.81143286638246,40.6752845524572],[-73.81121456784908,40.6752755102026],[-73.81119538318615,40.675541904908485],[-73.81141368171953,40.67555094716308],[-73.81143286638246,40.6752845524572]]]},"properties":{"height_ft":60.9,"floors":6,"type":"commercial"}},{"type":"Feature","geometry":{"type":"Polygon","coordinates":[[[-73.81062037845615,40.675275583123046],[-73.81045777015854,40.67526884764204],[-73.81044685358589,40.67542043316465],[-73.8106094618835,40.67542716864566],[-73.81062037845615,40.675275583123046]]]},"properties":{"height_ft":57.9,"floors":5,"type":"commercial"}},{"type":"Feature","geometry":{"type":"Polygon","coordinates":[[[-73.80995278493415,40.67512529369852],[-73.8097564240758,40.67511716013553],[-73.8097424258221,40.675311537315515],[-73.80993878668045,40.67531967087851],[-73.80995278493415,40.67512529369852]]]},"properties":{"height_ft":25.2,"floors":2,"type":"industrial"}},{"type":"Feature","geometry":{"type":"Polygon","coordinates":[[[-73.81516814932787,40.67600120026992],[-73.81496156550266,40.675992643256215],[-73.81494830618728,40.676176759674235],[-73.8151548900125,40.67618531668794],[-73.81516814932787,40.67600120026992]]]},"properties":{"height_ft":45.7,"floors":4,"type":"mid-rise"}},{"type":"Feature","geometry":{"type":"Polygon","coordinates":[[[-73.81428746630638,40.67590475348097],[-73.81405438230507,40.675895098789994],[-73.81404259230271,40.67605881259737],[-73.81427567630402,40.676068467288346],[-73.81428746630638,40.67590475348097]]]},"properties":{"height_ft":32.6,"floors":3,"type":"mid-rise"}},{"type":"Feature","geometry":{"type":"Polygon","coordinates":[[[-73.81370290318623,40.6758787718815],[-73.81350133962957,40.67587042281489],[-73.81348491412191,40.676098504397345],[-73.81368647767857,40.676106853463956],[-73.81370290318623,40.6758787718815]]]},"properties":{"height_ft":59,"floors":5,"type":"commercial"}},{"type":"Feature","geometry":{"type":"Polygon","coordinates":[[[-73.81289895813485,40.675907484202384],[-73.8126631070536,40.675897714894774],[-73.81264725080861,40.67611789180046],[-73.81288310188987,40.67612766110807],[-73.81289895813485,40.675907484202384]]]},"properties":{"height_ft":26.2,"floors":2,"type":"residential"}},{"type":"Feature","geometry":{"type":"Polygon","coordinates":[[[-73.81222182293108,40.67577586587968],[-73.81197629989074,40.67576569594493],[-73.81195758401803,40.676025581115816],[-73.81220310705837,40.67603575105056],[-73.81222182293108,40.67577586587968]]]},"properties":{"height_ft":22.8,"floors":2,"type":"industrial"}},{"type":"Feature","geometry":{"type":"Polygon","coordinates":[[[-73.81133390678845,40.67579022569187],[-73.81116465040405,40.675783214837075],[-73.81114709607685,40.67602697100041],[-73.81131635246125,40.676033981855205],[-73.81133390678845,40.67579022569187]]]},"properties":{"height_ft":39,"floors":4,"type":"mid-rise"}},{"type":"Feature","geometry":{"type":"Polygon","coordinates":[[[-73.81059878058217,40.67567005921716],[-73.81039251175446,40.67566151525112],[-73.81037493267924,40.67590561506099],[-73.81058120150695,40.67591415902703],[-73.81059878058217,40.67567005921716]]]},"properties":{"height_ft":47.3,"floors":4,"type":"mid-rise"}},{"type":"Feature","geometry":{"type":"Polygon","coordinates":[[[-73.8098334849176,40.67567802260687],[-73.80966293923203,40.67567095834727],[-73.80964871007266,40.67586854184072],[-73.80981925575824,40.67587560610032],[-73.8098334849176,40.67567802260687]]]},"properties":{"height_ft":18.7,"floors":2,"type":"industrial"}},{"type":"Feature","geometry":{"type":"Polygon","coordinates":[[[-73.81509470942899,40.67648824105887],[-73.81485313088407,40.67647823451107],[-73.81483489209262,40.676731495019276],[-73.81507647063754,40.67674150156707],[-73.81509470942899,40.67648824105887]]]},"properties":{"height_ft":23.1,"floors":2,"type":"residential"}},{"type":"Feature","geometry":{"type":"Polygon","coordinates":[[[-73.81427419211104,40.676503912300966],[-73.81411718698318,40.6764974089117],[-73.81410002145239,40.676735766319645],[-73.81425702658025,40.67674226970891],[-73.81427419211104,40.676503912300966]]]},"properties":{"height_ft":34.6,"floors":3,"type":"mid-rise"}},{"type":"Feature","geometry":{"type":"Polygon","coordinates":[[[-73.81361267294982,40.676500335806054],[-73.81343167678388,40.67649283867179],[-73.81342088637813,40.67664267226415],[-73.81360188254406,40.676650169398414],[-73.81361267294982,40.676500335806054]]]},"properties":{"height_ft":14.4,"floors":1,"type":"industrial"}},{"type":"Feature","geometry":{"type":"Polygon","coordinates":[[[-73.81289623139554,40.676441425798075],[-73.8126614906492,40.67643170248221],[-73.81264582233902,40.676649269759665],[-73.81288056308536,40.67665899307553],[-73.81289623139554,40.676441425798075]]]},"properties":{"height_ft":23.8,"floors":2,"type":"residential"}},{"type":"Feature","geometry":{"type":"Polygon","coordinates":[[[-73.81206810449756,40.67639691152023],[-73.81181691670477,40.67638650694289],[-73.8118061813589,40.67653557598375],[-73.81205736915169,40.67654598056109],[-73.81206810449756,40.67639691152023]]]},"properties":{"height_ft":16.8,"floors":2,"type":"residential"}},{"type":"Feature","geometry":{"type":"Polygon","coordinates":[[[-73.81132287666348,40.676332353952795],[-73.81115303346107,40.676325318791115],[-73.81113937082922,40.67651503558748],[-73.81130921403164,40.67652207074916],[-73.81132287666348,40.676332353952795]]]},"properties":{"height_ft":21.3,"floors":2,"type":"residential"}},{"type":"Feature","geometry":{"type":"Polygon","coordinates":[[[-73.81056557797902,40.67633964321625],[-73.81033042137948,40.67632990267512],[-73.81031145461012,40.67659327175082],[-73.81054661120966,40.67660301229195],[-73.81056557797902,40.67633964321625]]]},"properties":{"height_ft":28.6,"floors":3,"type":"residential"}},{"type":"Feature","geometry":{"type":"Polygon","coordinates":[[[-73.8099142831886,40.67626161574317],[-73.80967213936138,40.676251585780534],[-73.80965922422662,40.67643092296983],[-73.80990136805384,40.67644095293247],[-73.8099142831886,40.67626161574317]]]},"properties":{"height_ft":45.2,"floors":4,"type":"mid-rise"}},{"type":"Feature","geometry":{"type":"Polygon","coordinates":[[[-73.81502763687426,40.67706241605144],[-73.81484059292978,40.67705466840907],[-73.81482696844257,40.67724385553602],[-73.81501401238705,40.67725160317839],[-73.81502763687426,40.67706241605144]]]},"properties":{"height_ft":17.1,"floors":2,"type":"residential"}},{"type":"Feature","geometry":{"type":"Polygon","coordinates":[[[-73.81424475102833,40.67709519949222],[-73.81402780179798,40.677086213127794],[-73.81401684408715,40.677238369887654],[-73.8142337933175,40.67724735625208],[-73.81424475102833,40.67709519949222]]]},"properties":{"height_ft":34.3,"floors":3,"type":"mid-rise"}},{"type":"Feature","geometry":{"type":"Polygon","coordinates":[[[-73.813671886611,40.676949070401704],[-73.81337705708272,40.67693685811784],[-73.81336281640885,40.677134601499546],[-73.81365764593714,40.67714681378341],[-73.813671886611,40.676949070401704]]]},"properties":{"height_ft":17.7,"floors":2,"type":"industrial"}},{"type":"Feature","geometry":{"type":"Polygon","coordinates":[[[-73.81276048260257,40.677023585554544],[-73.81254705958932,40.67701474525135],[-73.81252976961021,40.67725483072561],[-73.81274319262346,40.677263671028804],[-73.81276048260257,40.677023585554544]]]},"properties":{"height_ft":25.3,"floors":2,"type":"residential"}},{"type":"Feature","geometry":{"type":"Polygon","coordinates":[[[-73.81209783514261,40.67686651864465],[-73.81191555710994,40.67685896841354],[-73.81189914403696,40.67708687733046],[-73.81208142206962,40.67709442756157],[-73.81209783514261,40.67686651864465]]]},"properties":{"height_ft":14.7,"floors":1,"type":"residential"}},{"type":"Feature","geometry":{"type":"Polygon","coordinates":[[[-73.81127535627255,40.67694851008959],[-73.81102078021837,40.67693796516535],[-73.81101021627472,40.67708465414668],[-73.8112647923289,40.67709519907092],[-73.81127535627255,40.67694851008959]]]},"properties":{"height_ft":14,"floors":1,"type":"industrial"}},{"type":"Feature","geometry":{"type":"Polygon","coordinates":[[[-73.81059531368446,40.67693532672797],[-73.81039456351685,40.676927011353165],[-73.81037745410568,40.67716458949434],[-73.81057820427328,40.677172904869145],[-73.81059531368446,40.67693532672797]]]},"properties":{"height_ft":41.6,"floors":4,"type":"mid-rise"}},{"type":"Feature","geometry":{"type":"Polygon","coordinates":[[[-73.80976422334548,40.6768611062456],[-73.80958067841125,40.676853503537515],[-73.80956662546593,40.67704864015507],[-73.80975017040016,40.67705624286316],[-73.80976422334548,40.6768611062456]]]},"properties":{"height_ft":36.4,"floors":3,"type":"mid-rise"}},{"type":"Feature","geometry":{"type":"Polygon","coordinates":[[[-73.81493352931231,40.67763343479344],[-73.81470331917835,40.677623899142375],[-73.81468708671177,40.677849300192],[-73.81491729684573,40.67785883584307],[-73.81493352931231,40.67763343479344]]]},"properties":{"height_ft":25.8,"floors":2,"type":"residential"}},{"type":"Feature","geometry":{"type":"Polygon","coordinates":[[[-73.81432661727099,40.67763506941243],[-73.81409652915859,40.67762553881568],[-73.81408063597273,40.67784622867545],[-73.81431072408513,40.6778557592722],[-73.81432661727099,40.67763506941243]]]},"properties":{"height_ft":18.8,"floors":2,"type":"residential"}},{"type":"Feature","geometry":{"type":"Polygon","coordinates":[[[-73.81342265411391,40.67750643511017],[-73.81316685412183,40.67749583948857],[-73.81314909158141,40.67774248686262],[-73.81340489157348,40.677753082484216],[-73.81342265411391,40.67750643511017]]]},"properties":{"height_ft":50.7,"floors":5,"type":"mid-rise"}},{"type":"Feature","geometry":{"type":"Polygon","coordinates":[[[-73.81281652380521,40.67757413240566],[-73.81256097432838,40.67756354716079],[-73.81255004525737,40.67771530623363],[-73.8128055947342,40.6777258914785],[-73.81281652380521,40.67757413240566]]]},"properties":{"height_ft":24.7,"floors":2,"type":"residential"}},{"type":"Feature","geometry":{"type":"Polygon","coordinates":[[[-73.81203369518565,40.67743793286055],[-73.81185904349029,40.67743069852383],[-73.8118427355125,40.677657148108146],[-73.81201738720786,40.67766438244487],[-73.81203369518565,40.67743793286055]]]},"properties":{"height_ft":14.4,"floors":1,"type":"industrial"}},{"type":"Feature","geometry":{"type":"Polygon","coordinates":[[[-73.81124042164298,40.67735697594307],[-73.81103615086889,40.67734851473943],[-73.81101789801103,40.67760197057133],[-73.81122216878512,40.67761043177497],[-73.81124042164298,40.67735697594307]]]},"properties":{"height_ft":21.7,"floors":2,"type":"industrial"}},{"type":"Feature","geometry":{"type":"Polygon","coordinates":[[[-73.81057033979184,40.67741642542836],[-73.81040871546769,40.677409730705016],[-73.81039367692529,40.67761855314279],[-73.81055530124944,40.67762524786614],[-73.81057033979184,40.67741642542836]]]},"properties":{"height_ft":48.5,"floors":4,"type":"mid-rise"}},{"type":"Feature","geometry":{"type":"Polygon","coordinates":[[[-73.80972176239499,40.67737388381101],[-73.80953770027571,40.67736625968033],[-73.80951951008643,40.677618845307784],[-73.8097035722057,40.67762646943846],[-73.80972176239499,40.67737388381101]]]},"properties":{"height_ft":14.2,"floors":1,"type":"residential"}},{"type":"Feature","geometry":{"type":"Polygon","coordinates":[[[-73.99322864817275,40.67277179083333],[-73.99296698662984,40.67282211971844],[-73.99305365451814,40.673081301331756],[-73.99331531606104,40.67303097244665],[-73.99322864817275,40.67277179083333]]]},"properties":{"height_ft":52,"floors":5,"type":"mid-rise"}},{"type":"Feature","geometry":{"type":"Polygon","coordinates":[[[-73.99247485555117,40.672922489081586],[-73.99231527325662,40.67295318369141],[-73.99237007652806,40.67311707369248],[-73.9925296588226,40.673086379082655],[-73.99247485555117,40.672922489081586]]]},"properties":{"height_ft":89,"floors":8,"type":"commercial"}},{"type":"Feature","geometry":{"type":"Polygon","coordinates":[[[-73.9918710072352,40.67298797174502],[-73.99162987175812,40.67303435257572],[-73.99171225661021,40.67328072570539],[-73.9919533920873,40.67323434487469],[-73.9918710072352,40.67298797174502]]]},"properties":{"height_ft":44.5,"floors":4,"type":"mid-rise"}},{"type":"Feature","geometry":{"type":"Polygon","coordinates":[[[-73.99119065424084,40.6733155721565],[-73.9909907320525,40.673354025880855],[-73.99104477454823,40.67351564077083],[-73.99124469673657,40.67347718704647],[-73.99119065424084,40.6733155721565]]]},"properties":{"height_ft":20,"floors":2,"type":"residential"}},{"type":"Feature","geometry":{"type":"Polygon","coordinates":[[[-73.99057533050761,40.67331450912601],[-73.99029336422483,40.673368743494926],[-73.99037884098676,40.67362436302711],[-73.99066080726955,40.67357012865819],[-73.99057533050761,40.67331450912601]]]},"properties":{"height_ft":48.6,"floors":4,"type":"mid-rise"}},{"type":"Feature","geometry":{"type":"Polygon","coordinates":[[[-73.9898251257634,40.673525141021706],[-73.98965148713086,40.67355853927615],[-73.98970201236669,40.673709635747905],[-73.98987565099924,40.67367623749346],[-73.9898251257634,40.673525141021706]]]},"properties":{"height_ft":48.6,"floors":4,"type":"mid-rise"}},{"type":"Feature","geometry":{"type":"Polygon","coordinates":[[[-73.98900516233793,40.67352960334453],[-73.98872344364611,40.673583790090944],[-73.98880625782421,40.67383144712641],[-73.98908797651603,40.67377726037999],[-73.98900516233793,40.67352960334453]]]},"properties":{"height_ft":49.9,"floors":5,"type":"mid-rise"}},{"type":"Feature","geometry":{"type":"Polygon","coordinates":[[[-73.98832448110596,40.673667166146494],[-73.98813519519179,40.673703574053135],[-73.98821658978741,40.67394698580605],[-73.98840587570159,40.673910577899406],[-73.98832448110596,40.673667166146494]]]},"properties":{"height_ft":16.7,"floors":2,"type":"industrial"}},{"type":"Feature","geometry":{"type":"Polygon","coordinates":[[[-73.99355440129902,40.67327533480255],[-73.99335682108872,40.673313338062755],[-73.99343062629693,40.67353405363928],[-73.99362820650722,40.67349605037907],[-73.99355440129902,40.67327533480255]]]},"properties":{"height_ft":14.3,"floors":1,"type":"industrial"}},{"type":"Feature","geometry":{"type":"Polygon","coordinates":[[[-73.99280920136604,40.67345977002374],[-73.99261559137808,40.67349700963768],[-73.99266894530021,40.67365656533798],[-73.99286255528817,40.67361932572404],[-73.99280920136604,40.67345977002374]]]},"properties":{"height_ft":41,"floors":4,"type":"mid-rise"}},{"type":"Feature","geometry":{"type":"Polygon","coordinates":[[[-73.99208375388852,40.673604251581274],[-73.99188603387674,40.67364228173139],[-73.99195218242633,40.6738400999561],[-73.99214990243811,40.67380206980599],[-73.99208375388852,40.673604251581274]]]},"properties":{"height_ft":34.4,"floors":3,"type":"mid-rise"}},{"type":"Feature","geometry":{"type":"Polygon","coordinates":[[[-73.99135427809802,40.67379016931181],[-73.991184648035,40.67382279654413],[-73.99126330193471,40.674058012205],[-73.99143293199772,40.67402538497268],[-73.99135427809802,40.67379016931181]]]},"properties":{"height_ft":25.6,"floors":2,"type":"industrial"}},{"type":"Feature","geometry":{"type":"Polygon","coordinates":[[[-73.99076825865096,40.673949220763134],[-73.99055770333507,40.67398971969998],[-73.99061489407082,40.67416074944872],[-73.9908254493867,40.67412025051187],[-73.99076825865096,40.673949220763134]]]},"properties":{"height_ft":53.3,"floors":5,"type":"mid-rise"}},{"type":"Feature","geometry":{"type":"Polygon","coordinates":[[[-73.9898543948902,40.67400350035803],[-73.9895969798528,40.6740530124556],[-73.98967755080763,40.67429396109838],[-73.98993496584502,40.67424444900081],[-73.9898543948902,40.67400350035803]]]},"properties":{"height_ft":61.9,"floors":6,"type":"commercial"}},{"type":"Feature","geometry":{"type":"Polygon","coordinates":[[[-73.98926416280162,40.67411642346081],[-73.98903216171784,40.674161047350744],[-73.98910167522152,40.674368928520856],[-73.9893336763053,40.67432430463092],[-73.98926416280162,40.67411642346081]]]},"properties":{"height_ft":31.8,"floors":3,"type":"industrial"}},{"type":"Feature","geometry":{"type":"Polygon","coordinates":[[[-73.98859005834912,40.67434601041758],[-73.98831457020486,40.67439899875895],[-73.98836493189351,40.674549606140445],[-73.98864042003777,40.67449661779907],[-73.98859005834912,40.67434601041758]]]},"properties":{"height_ft":18.4,"floors":2,"type":"residential"}},{"type":"Feature","geometry":{"type":"Polygon","coordinates":[[[-73.99374106535399,40.673934948871754],[-73.99351086044085,40.67397922728002],[-73.99357503768968,40.67417115030039],[-73.99380524260282,40.67412687189212],[-73.99374106535399,40.673934948871754]]]},"properties":{"height_ft":56.7,"floors":5,"type":"commercial"}},{"type":"Feature","geometry":{"type":"Polygon","coordinates":[[[-73.99294485702433,40.67405307782828],[-73.99269489021333,40.67410115730825],[-73.99277844358409,40.67435102491036],[-73.99302841039508,40.67430294543039],[-73.99294485702433,40.67405307782828]]]},"properties":{"height_ft":52.6,"floors":5,"type":"mid-rise"}},{"type":"Feature","geometry":{"type":"Polygon","coordinates":[[[-73.99233386387303,40.67409434936826],[-73.9921197916625,40.67413552475677],[-73.99216661588241,40.67427555328514],[-73.99238068809294,40.67423437789663],[-73.99233386387303,40.67409434936826]]]},"properties":{"height_ft":15.3,"floors":1,"type":"residential"}},{"type":"Feature","geometry":{"type":"Polygon","coordinates":[[[-73.99164317834902,40.674297715492514],[-73.99138450379628,40.674347469849614],[-73.99144623262319,40.67453207082768],[-73.99170490717593,40.67448231647058],[-73.99164317834902,40.674297715492514]]]},"properties":{"height_ft":41.2,"floors":4,"type":"mid-rise"}},{"type":"Feature","geometry":{"type":"Polygon","coordinates":[[[-73.9907887649964,40.674493434742224],[-73.99054865809887,40.67453961773237],[-73.99062867417258,40.67477890699492],[-73.9908687810701,40.67473272400478],[-73.9907887649964,40.674493434742224]]]},"properties":{"height_ft":31.6,"floors":3,"type":"residential"}},{"type":"Feature","geometry":{"type":"Polygon","coordinates":[[[-73.9901924493865,40.6746341831685],[-73.98991372103389,40.674687794742745],[-73.9899702625864,40.6748568830993],[-73.99024899093901,40.67480327152506],[-73.9901924493865,40.6746341831685]]]},"properties":{"height_ft":49.3,"floors":4,"type":"mid-rise"}},{"type":"Feature","geometry":{"type":"Polygon","coordinates":[[[-73.98953617190917,40.67471958352528],[-73.9892630861552,40.6747721097826],[-73.98933130798223,40.6749761281744],[-73.98960439373619,40.67492360191708],[-73.98953617190917,40.67471958352528]]]},"properties":{"height_ft":36.6,"floors":3,"type":"mid-rise"}},{"type":"Feature","geometry":{"type":"Polygon","coordinates":[[[-73.98873286847507,40.67483670662737],[-73.9885746033941,40.67486714787979],[-73.98865640749858,40.675111784275025],[-73.98881467257955,40.675081343022605],[-73.98873286847507,40.67483670662737]]]},"properties":{"height_ft":30.2,"floors":3,"type":"residential"}},{"type":"Feature","geometry":{"type":"Polygon","coordinates":[[[-73.9938906657851,40.67440964250769],[-73.9936106344846,40.67446350469543],[-73.99367053635606,40.67464264213596],[-73.99395056765657,40.674588779948216],[-73.9938906657851,40.67440964250769]]]},"properties":{"height_ft":14.6,"floors":1,"type":"industrial"}},{"type":"Feature","geometry":{"type":"Polygon","coordinates":[[[-73.99326791827062,40.67456854250591],[-73.99300375251102,40.674619353060706],[-73.99306508991796,40.67480278349153],[-73.99332925567757,40.67475197293673],[-73.99326791827062,40.67456854250591]]]},"properties":{"height_ft":23.2,"floors":2,"type":"industrial"}},{"type":"Feature","geometry":{"type":"Polygon","coordinates":[[[-73.99243397668394,40.67470111015491],[-73.99219962448049,40.67474618626733],[-73.99227928918026,40.67498442474081],[-73.99251364138371,40.6749393486284],[-73.99243397668394,40.67470111015491]]]},"properties":{"height_ft":29.1,"floors":3,"type":"residential"}},{"type":"Feature","geometry":{"type":"Polygon","coordinates":[[[-73.9916474349084,40.67488867576299],[-73.99139936898636,40.67493638961941],[-73.99148557043759,40.675194176345705],[-73.99173363635963,40.67514646248929],[-73.9916474349084,40.67488867576299]]]},"properties":{"height_ft":26.2,"floors":2,"type":"industrial"}},{"type":"Feature","geometry":{"type":"Polygon","coordinates":[[[-73.99091773183486,40.674953977760374],[-73.99070611299918,40.6749946812583],[-73.99077670084787,40.675205775273234],[-73.99098831968355,40.67516507177531],[-73.99091773183486,40.674953977760374]]]},"properties":{"height_ft":38,"floors":3,"type":"mid-rise"}},{"type":"Feature","geometry":{"type":"Polygon","coordinates":[[[-73.99025797797258,40.675023110665045],[-73.99005073601055,40.67506297229996],[-73.9901315781449,40.67530473190917],[-73.99033882010693,40.675264870274255],[-73.99025797797258,40.675023110665045]]]},"properties":{"height_ft":19,"floors":2,"type":"residential"}},{"type":"Feature","geometry":{"type":"Polygon","coordinates":[[[-73.98950388214712,40.67523713058215],[-73.98922826326175,40.67529014407072],[-73.98930894743154,40.675531431284554],[-73.9895845663169,40.67547841779598],[-73.98950388214712,40.67523713058215]]]},"properties":{"height_ft":14.3,"floors":1,"type":"industrial"}},{"type":"Feature","geometry":{"type":"Polygon","coordinates":[[[-73.988774709393,40.67537744582762],[-73.98858946211287,40.675413076929445],[-73.98866279705663,40.675632386173135],[-73.98884804433676,40.67559675507131],[-73.988774709393,40.67537744582762]]]},"properties":{"height_ft":65.6,"floors":6,"type":"commercial"}},{"type":"Feature","geometry":{"type":"Polygon","coordinates":[[[-73.9941434482328,40.6749949734057],[-73.99387225020418,40.675047136571415],[-73.99392569984671,40.6752069785251],[-73.99419689787534,40.675154815359384],[-73.9941434482328,40.6749949734057]]]},"properties":{"height_ft":77.7,"floors":7,"type":"commercial"}},{"type":"Feature","geometry":{"type":"Polygon","coordinates":[[[-73.99345041814789,40.675176411513604],[-73.9931728922386,40.67522979180574],[-73.9932274813624,40.675393041395125],[-73.99350500727168,40.67533966110299],[-73.99345041814789,40.675176411513604]]]},"properties":{"height_ft":33.5,"floors":3,"type":"mid-rise"}},{"type":"Feature","geometry":{"type":"Polygon","coordinates":[[[-73.99259117953594,40.675297258385754],[-73.99235031079455,40.675343587911584],[-73.99242998271589,40.67558184798132],[-73.99267085145728,40.67553551845549],[-73.99259117953594,40.675297258385754]]]},"properties":{"height_ft":50.9,"floors":5,"type":"mid-rise"}},{"type":"Feature","geometry":{"type":"Polygon","coordinates":[[[-73.99186910282295,40.675456119413205],[-73.99166225884163,40.675495904499144],[-73.99170983013202,40.675638167152975],[-73.99191667411334,40.67559838206704],[-73.99186910282295,40.675456119413205]]]},"properties":{"height_ft":40.8,"floors":4,"type":"mid-rise"}},{"type":"Feature","geometry":{"type":"Polygon","coordinates":[[[-73.9912579527277,40.6755391447138],[-73.99108496802987,40.67557241718818],[-73.99114311796805,40.675746315446126],[-73.99131610266588,40.67571304297175],[-73.9912579527277,40.6755391447138]]]},"properties":{"height_ft":15.7,"floors":1,"type":"industrial"}},{"type":"Feature","geometry":{"type":"Polygon","coordinates":[[[-73.99048120438685,40.67571840551232],[-73.99032681433287,40.67574810142867],[-73.99038565675555,40.67592407057179],[-73.99054004680953,40.67589437465544],[-73.99048120438685,40.67571840551232]]]},"properties":{"height_ft":16,"floors":1,"type":"residential"}},{"type":"Feature","geometry":{"type":"Polygon","coordinates":[[[-73.98986526646632,40.67579573051079],[-73.98962597967305,40.67584175575926],[-73.98968011948102,40.67600366166294],[-73.9899194062743,40.67595763641447],[-73.98986526646632,40.67579573051079]]]},"properties":{"height_ft":16.7,"floors":2,"type":"residential"}},{"type":"Feature","geometry":{"type":"Polygon","coordinates":[[[-73.98915121087931,40.67595114465841],[-73.98893965593112,40.67599183586799],[-73.9889924468829,40.6761497079971],[-73.9892040018311,40.67610901678752],[-73.98915121087931,40.67595114465841]]]},"properties":{"height_ft":36.4,"floors":3,"type":"mid-rise"}},{"type":"Feature","geometry":{"type":"Polygon","coordinates":[[[-73.99417535150444,40.675522786652515],[-73.99390555794031,40.675574679678675],[-73.99396477640711,40.67575177338737],[-73.99423456997124,40.67569988036121],[-73.99417535150444,40.675522786652515]]]},"properties":{"height_ft":70.5,"floors":6,"type":"commercial"}},{"type":"Feature","geometry":{"type":"Polygon","coordinates":[[[-73.9935371191883,40.67571035922938],[-73.99327604876984,40.67576057441557],[-73.9933419051222,40.67595751882006],[-73.99360297554065,40.67590730363387],[-73.9935371191883,40.67571035922938]]]},"properties":{"height_ft":18.3,"floors":2,"type":"residential"}},{"type":"Feature","geometry":{"type":"Polygon","coordinates":[[[-73.9928443647922,40.67581103063251],[-73.9926669496774,40.67584515526859],[-73.99274641342691,40.67608279279735],[-73.99292382854172,40.67604866816127],[-73.9928443647922,40.67581103063251]]]},"properties":{"height_ft":31.4,"floors":3,"type":"residential"}},{"type":"Feature","geometry":{"type":"Polygon","coordinates":[[[-73.99203543045621,40.675849404081305],[-73.99181474089124,40.67589185227463],[-73.99188199987401,40.67609299126629],[-73.99210268943898,40.67605054307296],[-73.99203543045621,40.675849404081305]]]},"properties":{"height_ft":14.8,"floors":1,"type":"industrial"}},{"type":"Feature","geometry":{"type":"Polygon","coordinates":[[[-73.9913826982805,40.67594617754294],[-73.99114434922085,40.67599202242448],[-73.99122633715875,40.676237208576325],[-73.99146468621841,40.676191363694784],[-73.9913826982805,40.67594617754294]]]},"properties":{"height_ft":17.1,"floors":2,"type":"industrial"}},{"type":"Feature","geometry":{"type":"Polygon","coordinates":[[[-73.99055188753371,40.67625025629273],[-73.99039597981395,40.67628024412216],[-73.99046025601348,40.67647246305606],[-73.99061616373324,40.67644247522663],[-73.99055188753371,40.67625025629273]]]},"properties":{"height_ft":48.8,"floors":4,"type":"mid-rise"}},{"type":"Feature","geometry":{"type":"Polygon","coordinates":[[[-73.9899791576378,40.67638879611638],[-73.98972927471313,40.67643685946136],[-73.98978400429769,40.6766005291007],[-73.99003388722237,40.67655246575572],[-73.9899791576378,40.67638879611638]]]},"properties":{"height_ft":15.7,"floors":1,"type":"residential"}},{"type":"Feature","geometry":{"type":"Polygon","coordinates":[[[-73.98929169553217,40.67647731989488],[-73.98903129698989,40.67652740585008],[-73.98908412535708,40.67668538987052],[-73.98934452389936,40.67663530391532],[-73.98929169553217,40.67647731989488]]]},"properties":{"height_ft":55.1,"floors":5,"type":"commercial"}},{"type":"Feature","geometry":{"type":"Polygon","coordinates":[[[-74.08520056173516,40.592620165666254],[-74.0850218747954,40.59265461868564],[-74.08508875487756,40.59285461825166],[-74.08526744181732,40.59282016523227],[-74.08520056173516,40.592620165666254]]]},"properties":{"height_ft":16,"floors":1,"type":"industrial"}},{"type":"Feature","geometry":{"type":"Polygon","coordinates":[[[-74.08454923996328,40.59279434592445],[-74.08439977107629,40.59282316534723],[-74.08445727180208,40.59299511669406],[-74.08460674068907,40.59296629727129],[-74.08454923996328,40.59279434592445]]]},"properties":{"height_ft":28.5,"floors":3,"type":"industrial"}},{"type":"Feature","geometry":{"type":"Polygon","coordinates":[[[-74.08376310644783,40.5928526455946],[-74.08349062638794,40.59290518307047],[-74.08355577455879,40.59310000349347],[-74.08382825461868,40.593047466017595],[-74.08376310644783,40.5928526455946]]]},"properties":{"height_ft":23.2,"floors":2,"type":"industrial"}},{"type":"Feature","geometry":{"type":"Polygon","coordinates":[[[-74.08303022866149,40.59298545742837],[-74.0827897124831,40.59303183187839],[-74.08284235039083,40.59318924135464],[-74.08308286656921,40.593142866904614],[-74.08303022866149,40.59298545742837]]]},"properties":{"height_ft":54.1,"floors":5,"type":"mid-rise"}},{"type":"Feature","geometry":{"type":"Polygon","coordinates":[[[-74.08228633017019,40.59313935161095],[-74.08203085806323,40.59318860974624],[-74.08210853666479,40.593420901425624],[-74.08236400877175,40.59337164329033],[-74.08228633017019,40.59313935161095]]]},"properties":{"height_ft":32.9,"floors":3,"type":"mid-rise"}},{"type":"Feature","geometry":{"type":"Polygon","coordinates":[[[-74.08167737762359,40.593331061446065],[-74.08141862083218,40.59338095290854],[-74.08149511941308,40.593609715829984],[-74.08175387620449,40.59355982436751],[-74.08167737762359,40.593331061446065]]]},"properties":{"height_ft":17.4,"floors":2,"type":"residential"}},{"type":"Feature","geometry":{"type":"Polygon","coordinates":[[[-74.08093856864603,40.593499431410336],[-74.08070301445865,40.59354484912802],[-74.08077538535115,40.59376126852561],[-74.08101093953853,40.593715850807925],[-74.08093856864603,40.593499431410336]]]},"properties":{"height_ft":14.9,"floors":1,"type":"residential"}},{"type":"Feature","geometry":{"type":"Polygon","coordinates":[[[-74.08011879167056,40.59356384212463],[-74.0799173418667,40.59360268410159],[-74.07999798083522,40.59384382852287],[-74.08019943063907,40.59380498654591],[-74.08011879167056,40.59356384212463]]]},"properties":{"height_ft":45.2,"floors":4,"type":"mid-rise"}},{"type":"Feature","geometry":{"type":"Polygon","coordinates":[[[-74.08542625168978,40.59317555227607],[-74.08521931193775,40.59321545278194],[-74.0852907060741,40.59342895126799],[-74.08549764582614,40.59338905076212],[-74.08542625168978,40.59317555227607]]]},"properties":{"height_ft":35.2,"floors":3,"type":"mid-rise"}},{"type":"Feature","geometry":{"type":"Polygon","coordinates":[[[-74.08471059526202,40.59327872396023],[-74.08446680005792,40.59332573064636],[-74.08453652835412,40.593534247569956],[-74.08478032355822,40.593487240883825],[-74.08471059526202,40.59327872396023]]]},"properties":{"height_ft":82.7,"floors":8,"type":"commercial"}},{"type":"Feature","geometry":{"type":"Polygon","coordinates":[[[-74.08395716788411,40.59347507647763],[-74.08376078774201,40.59351294096203],[-74.08380829145736,40.5936549970443],[-74.08400467159946,40.5936171325599],[-74.08395716788411,40.59347507647763]]]},"properties":{"height_ft":18.4,"floors":2,"type":"residential"}},{"type":"Feature","geometry":{"type":"Polygon","coordinates":[[[-74.08320075056034,40.59350961612666],[-74.08295234664854,40.5935575114278],[-74.08302978076969,40.59378907200796],[-74.08327818468149,40.59374117670682],[-74.08320075056034,40.59350961612666]]]},"properties":{"height_ft":78.4,"floors":7,"type":"commercial"}},{"type":"Feature","geometry":{"type":"Polygon","coordinates":[[[-74.08252287432344,40.59363272404293],[-74.082319517997,40.59367193362068],[-74.08239009414288,40.593882985971234],[-74.08259345046932,40.593843776393484],[-74.08252287432344,40.59363272404293]]]},"properties":{"height_ft":26.6,"floors":2,"type":"industrial"}},{"type":"Feature","geometry":{"type":"Polygon","coordinates":[[[-74.08185269162941,40.59392337604198],[-74.08167854208291,40.593956954196656],[-74.08173197969155,40.59411675511485],[-74.08190612923805,40.59408317696017],[-74.08185269162941,40.59392337604198]]]},"properties":{"height_ft":19.7,"floors":2,"type":"residential"}},{"type":"Feature","geometry":{"type":"Polygon","coordinates":[[[-74.08104249753698,40.594080414902464],[-74.08085431155986,40.59411669945201],[-74.08090411938367,40.59426564578739],[-74.0810923053608,40.59422936123784],[-74.08104249753698,40.594080414902464]]]},"properties":{"height_ft":31.4,"floors":3,"type":"residential"}},{"type":"Feature","geometry":{"type":"Polygon","coordinates":[[[-74.08025833547961,40.59406883421959],[-74.08010658540888,40.59409809348239],[-74.08017353502532,40.59429830098514],[-74.08032528509605,40.59426904172234],[-74.08025833547961,40.59406883421959]]]},"properties":{"height_ft":46.4,"floors":4,"type":"mid-rise"}},{"type":"Feature","geometry":{"type":"Polygon","coordinates":[[[-74.08566739293879,40.593768370542705],[-74.08550655933685,40.593799381221004],[-74.08555536928115,40.59394534347709],[-74.08571620288309,40.59391433279879],[-74.08566739293879,40.593768370542705]]]},"properties":{"height_ft":29.3,"floors":3,"type":"industrial"}},{"type":"Feature","geometry":{"type":"Polygon","coordinates":[[[-74.08479775690355,40.59386032233293],[-74.08462650233865,40.59389334229988],[-74.08467653113439,40.59404294943421],[-74.0848477856993,40.59400992946726],[-74.08479775690355,40.59386032233293]]]},"properties":{"height_ft":54.1,"floors":5,"type":"mid-rise"}},{"type":"Feature","geometry":{"type":"Polygon","coordinates":[[[-74.08420155631488,40.594021198614065],[-74.08396589696174,40.594066636609],[-74.0840196078979,40.59422725489137],[-74.08425526725104,40.59418181689644],[-74.08420155631488,40.594021198614065]]]},"properties":{"height_ft":18.8,"floors":2,"type":"residential"}},{"type":"Feature","geometry":{"type":"Polygon","coordinates":[[[-74.08334491704169,40.594095757446645],[-74.08312471864085,40.59413821438157],[-74.0832032866186,40.59437316566969],[-74.08342348501944,40.59433070873476],[-74.08334491704169,40.594095757446645]]]},"properties":{"height_ft":55.2,"floors":5,"type":"commercial"}},{"type":"Feature","geometry":{"type":"Polygon","coordinates":[[[-74.08284722870809,40.59428431639099],[-74.08261220018929,40.59432963275337],[-74.08266081105086,40.59447499966833],[-74.08289583956966,40.59442968330595],[-74.08284722870809,40.59428431639099]]]},"properties":{"height_ft":43.6,"floors":4,"type":"mid-rise"}},{"type":"Feature","geometry":{"type":"Polygon","coordinates":[[[-74.08215908397243,40.59440796074381],[-74.08188833847865,40.5944601637742],[-74.08196834767283,40.5946994249054],[-74.0822390931666,40.59464722187501],[-74.08215908397243,40.59440796074381]]]},"properties":{"height_ft":18.9,"floors":2,"type":"industrial"}},{"type":"Feature","geometry":{"type":"Polygon","coordinates":[[[-74.0813113938328,40.59443808912961],[-74.08108703077986,40.59448134906021],[-74.08115951761994,40.594698115189814],[-74.08138388067289,40.594654855259215],[-74.0813113938328,40.59443808912961]]]},"properties":{"height_ft":25.6,"floors":2,"type":"residential"}},{"type":"Feature","geometry":{"type":"Polygon","coordinates":[[[-74.08061005511587,40.594691288995904],[-74.08033118418312,40.59474505870994],[-74.08037820112926,40.594885659147636],[-74.08065707206201,40.5948318894336],[-74.08061005511587,40.594691288995904]]]},"properties":{"height_ft":21,"floors":2,"type":"industrial"}},{"type":"Feature","geometry":{"type":"Polygon","coordinates":[[[-74.08571741555943,40.59413457347463],[-74.08545699790847,40.59418478517108],[-74.08553787650968,40.59442664619486],[-74.08579829416064,40.594376434498415],[-74.08571741555943,40.59413457347463]]]},"properties":{"height_ft":61.9,"floors":6,"type":"commercial"}},{"type":"Feature","geometry":{"type":"Polygon","coordinates":[[[-74.08494864189629,40.594359254265704],[-74.08473891717597,40.5943996917474],[-74.08481746701435,40.5946345887912],[-74.08502719173467,40.59459415130951],[-74.08494864189629,40.594359254265704]]]},"properties":{"height_ft":59.8,"floors":5,"type":"commercial"}},{"type":"Feature","geometry":{"type":"Polygon","coordinates":[[[-74.08428622272484,40.594554648183255],[-74.08413140684216,40.594584498571955],[-74.08418993541065,40.59475952360061],[-74.08434475129333,40.59472967321191],[-74.08428622272484,40.594554648183255]]]},"properties":{"height_ft":37.6,"floors":3,"type":"mid-rise"}},{"type":"Feature","geometry":{"type":"Polygon","coordinates":[[[-74.0835628119039,40.59466940644114],[-74.08337657943513,40.594705314330476],[-74.08344447191848,40.59490834140176],[-74.08363070438726,40.59487243351243],[-74.0835628119039,40.59466940644114]]]},"properties":{"height_ft":48.9,"floors":4,"type":"mid-rise"}},{"type":"Feature","geometry":{"type":"Polygon","coordinates":[[[-74.08294997325696,40.594794012002396],[-74.08277885566204,40.59482700555986],[-74.08284757005738,40.595032490493566],[-74.0830186876523,40.594999496936104],[-74.08294997325696,40.594794012002396]]]},"properties":{"height_ft":36,"floors":3,"type":"mid-rise"}},{"type":"Feature","geometry":{"type":"Polygon","coordinates":[[[-74.08221511709222,40.59483341541239],[-74.0819678843263,40.59488108490233],[-74.08203461905823,40.59508064981005],[-74.08228185182415,40.595032980320106],[-74.08221511709222,40.59483341541239]]]},"properties":{"height_ft":43.3,"floors":4,"type":"mid-rise"}},{"type":"Feature","geometry":{"type":"Polygon","coordinates":[[[-74.08144696750641,40.59510399568693],[-74.0812787953862,40.59513642132097],[-74.08134956130526,40.59534804117321],[-74.08151773342547,40.595315615539164],[-74.08144696750641,40.59510399568693]]]},"properties":{"height_ft":19.9,"floors":2,"type":"industrial"}},{"type":"Feature","geometry":{"type":"Polygon","coordinates":[[[-74.08078954523059,40.59516841946507],[-74.08059781634063,40.59520538713138],[-74.08065905001827,40.59538850157381],[-74.08085077890823,40.5953515339075],[-74.08078954523059,40.59516841946507]]]},"properties":{"height_ft":39.7,"floors":4,"type":"mid-rise"}},{"type":"Feature","geometry":{"type":"Polygon","coordinates":[[[-74.08599961019975,40.59480917300931],[-74.08571834804025,40.594863403781005],[-74.0857946694462,40.595091636874855],[-74.0860759316057,40.59503740610316],[-74.08599961019975,40.59480917300931]]]},"properties":{"height_ft":34.2,"floors":3,"type":"mid-rise"}},{"type":"Feature","geometry":{"type":"Polygon","coordinates":[[[-74.08523951309398,40.594797143283316],[-74.08507687250065,40.594828502371584],[-74.08516210735364,40.59508339041983],[-74.08532474794697,40.59505203133156],[-74.08523951309398,40.594797143283316]]]},"properties":{"height_ft":15.5,"floors":1,"type":"residential"}},{"type":"Feature","geometry":{"type":"Polygon","coordinates":[[[-74.08450007536297,40.594961742031174],[-74.08429060350267,40.595002130758374],[-74.08436283726311,40.59521814007353],[-74.08457230912342,40.59517775134633],[-74.08450007536297,40.594961742031174]]]},"properties":{"height_ft":14.1,"floors":1,"type":"industrial"}},{"type":"Feature","geometry":{"type":"Polygon","coordinates":[[[-74.08369299277919,40.59512932836576],[-74.08352151453113,40.59516239146154],[-74.08358409287328,40.59534952701625],[-74.08375557112134,40.59531646392047],[-74.08369299277919,40.59512932836576]]]},"properties":{"height_ft":46.7,"floors":4,"type":"mid-rise"}},{"type":"Feature","geometry":{"type":"Polygon","coordinates":[[[-74.08299808812015,40.595366334706924],[-74.08278574601769,40.59540727685179],[-74.08283309729049,40.59554887706673],[-74.08304543939295,40.59550793492187],[-74.08299808812015,40.595366334706924]]]},"properties":{"height_ft":23.2,"floors":2,"type":"residential"}},{"type":"Feature","geometry":{"type":"Polygon","coordinates":[[[-74.08243509854667,40.595452237399904],[-74.08224160811717,40.5954895447125],[-74.08232815974812,40.595748370480486],[-74.08252165017761,40.59571106316789],[-74.08243509854667,40.595452237399904]]]},"properties":{"height_ft":74.4,"floors":7,"type":"commercial"}},{"type":"Feature","geometry":{"type":"Polygon","coordinates":[[[-74.0817204887907,40.595532824772114],[-74.08145595625614,40.595583829868254],[-74.08153703676271,40.59582629467402],[-74.08180156929727,40.59577528957788],[-74.0817204887907,40.595532824772114]]]},"properties":{"height_ft":57.2,"floors":5,"type":"commercial"}},{"type":"Feature","geometry":{"type":"Polygon","coordinates":[[[-74.08092034220469,40.59581964181496],[-74.0807256189721,40.59585718682702],[-74.08079062608233,40.59605158541951],[-74.08098534931493,40.596014040407454],[-74.08092034220469,40.59581964181496]]]},"properties":{"height_ft":44.5,"floors":4,"type":"mid-rise"}},{"type":"Feature","geometry":{"type":"Polygon","coordinates":[[[-74.08603476051871,40.59524470889393],[-74.08576287105328,40.59529713249599],[-74.08583730195514,40.59551971218775],[-74.08610919142058,40.59546728858569],[-74.08603476051871,40.59524470889393]]]},"properties":{"height_ft":51.2,"floors":5,"type":"mid-rise"}},{"type":"Feature","geometry":{"type":"Polygon","coordinates":[[[-74.08544842255294,40.595469147311256],[-74.08519011734164,40.59551895170359],[-74.08526941879249,40.59575609638468],[-74.0855277240038,40.59570629199235],[-74.08544842255294,40.595469147311256]]]},"properties":{"height_ft":20.8,"floors":2,"type":"residential"}},{"type":"Feature","geometry":{"type":"Polygon","coordinates":[[[-74.08473038098688,40.595583808720725],[-74.08450747879644,40.59562678697923],[-74.08457522568591,40.59582937866357],[-74.08479812787635,40.59578640040507],[-74.08473038098688,40.595583808720725]]]},"properties":{"height_ft":53.4,"floors":5,"type":"mid-rise"}},{"type":"Feature","geometry":{"type":"Polygon","coordinates":[[[-74.08396365672174,40.59569795530482],[-74.08374832851777,40.59573947320644],[-74.08383203258525,40.595989783562395],[-74.08404736078921,40.59594826566077],[-74.08396365672174,40.59569795530482]]]},"properties":{"height_ft":15.7,"floors":1,"type":"residential"}},{"type":"Feature","geometry":{"type":"Polygon","coordinates":[[[-74.08337142942389,40.595850874230884],[-74.08310230255343,40.59590276517097],[-74.08316991569575,40.59610495689508],[-74.08343904256621,40.596053065955],[-74.08337142942389,40.595850874230884]]]},"properties":{"height_ft":19.6,"floors":2,"type":"industrial"}},{"type":"Feature","geometry":{"type":"Polygon","coordinates":[[[-74.08253656954639,40.59599247393162],[-74.08238483749987,40.59602172971912],[-74.08247209809147,40.596282675577555],[-74.08262383013799,40.59625341979005],[-74.08253656954639,40.59599247393162]]]},"properties":{"height_ft":43.9,"floors":4,"type":"mid-rise"}},{"type":"Feature","geometry":{"type":"Polygon","coordinates":[[[-74.08183064223167,40.596065284375385],[-74.08154955294033,40.59611948181598],[-74.0816223414289,40.59633715000142],[-74.08190343072023,40.59628295256082],[-74.08183064223167,40.596065284375385]]]},"properties":{"height_ft":24.1,"floors":2,"type":"industrial"}},{"type":"Feature","geometry":{"type":"Polygon","coordinates":[[[-74.08108351531062,40.59630620947314],[-74.08089917336153,40.59634175284724],[-74.0809678940817,40.59654725669483],[-74.08115223603079,40.59651171332074],[-74.08108351531062,40.59630620947314]]]},"properties":{"height_ft":56.7,"floors":5,"type":"commercial"}}]}